{"type":"FeatureCollection","source":{"name":"Natural Earth","url":"https://www.naturalearthdata.com/","license":"Public domain","scale":"1:50 million","retrievedAt":"2026-10-06T21:56:19.178Z"},"features":[{"type":"Feature","properties":{"name":"Lake Erie","scalerank":0},"bbox":[-83.456201,41.398096,-78.872266,43.106104],"geometry":{"type":"Polygon","coordinates":[[[-83.104834,42.286426],[-83.076465,42.275488],[-83.104541,42.215186],[-83.117236,42.119775],[-83.107861,42.070996],[-83.06123,42.050195],[-82.936621,42.006396],[-82.833838,41.997217],[-82.690039,42.035937],[-82.645117,42.037256],[-82.604199,42.025244],[-82.567236,41.999951],[-82.511523,41.932178],[-82.495996,41.944043],[-82.489844,42.004639],[-82.461768,42.057715],[-82.411914,42.103223],[-82.311377,42.158252],[-82.160156,42.222754],[-82.044385,42.257227],[-81.937891,42.268896],[-81.929346,42.279248],[-81.874463,42.315039],[-81.865918,42.308057],[-81.886719,42.273633],[-81.887012,42.257031],[-81.866797,42.25835],[-81.84082,42.295459],[-81.809033,42.368408],[-81.729932,42.446582],[-81.494922,42.591162],[-81.404395,42.62998],[-81.25249,42.65376],[-81.03916,42.662451],[-80.827197,42.643164],[-80.616602,42.59585],[-80.473047,42.573926],[-80.396631,42.577393],[-80.093848,42.546387],[-80.062109,42.55415],[-80.104834,42.571533],[-80.304932,42.589697],[-80.367773,42.60791],[-80.446045,42.604199],[-80.451221,42.613477],[-80.395557,42.675879],[-80.364746,42.683105],[-80.32583,42.707373],[-80.28584,42.738477],[-80.220459,42.774365],[-80.099463,42.802344],[-79.922852,42.822412],[-79.746582,42.858447],[-79.698682,42.861621],[-79.661475,42.850586],[-79.593848,42.853955],[-79.385937,42.880664],[-79.263965,42.880322],[-79.175928,42.872607],[-79.121875,42.85752],[-79.056934,42.862256],[-78.936426,42.907227],[-78.922363,42.923828],[-78.94707,42.951562],[-79.010547,42.990527],[-79.039697,43.021289],[-79.034521,43.043896],[-79.042871,43.063623],[-79.073193,43.093066],[-79.066064,43.106104],[-78.908154,43.070312],[-78.894727,43.057764],[-78.900098,43.033496],[-78.900098,43.033496],[-78.900098,43.033496],[-78.900098,43.033496],[-78.900098,43.033496],[-78.900098,43.033496],[-78.924316,42.99751],[-78.919727,42.948193],[-78.88623,42.885645],[-78.872266,42.835938],[-78.877832,42.799121],[-78.918262,42.764062],[-78.993604,42.730713],[-79.062549,42.679785],[-79.124951,42.61123],[-79.209229,42.555176],[-79.315381,42.511572],[-79.416357,42.456885],[-79.512256,42.391016],[-79.704053,42.300098],[-80.076172,42.145996],[-80.124707,42.12832],[-80.168164,42.108984],[-80.251953,42.075293],[-80.334473,42.04082],[-80.869238,41.893311],[-81.228613,41.77041],[-81.44707,41.671484],[-81.637207,41.548437],[-81.723193,41.510937],[-81.81748,41.500879],[-81.966309,41.507666],[-82.121338,41.492969],[-82.282471,41.456836],[-82.386865,41.42749],[-82.434424,41.404932],[-82.480273,41.398096],[-82.524414,41.406982],[-82.642627,41.466895],[-82.651465,41.462451],[-82.673486,41.453662],[-82.743066,41.464062],[-82.822266,41.465234],[-82.891113,41.443311],[-82.95957,41.439746],[-83.02749,41.454541],[-82.970703,41.475732],[-82.7,41.521289],[-82.703125,41.529492],[-82.800781,41.555713],[-82.830762,41.579687],[-82.855518,41.577832],[-82.874902,41.550146],[-82.910791,41.538232],[-82.963281,41.541943],[-83.016016,41.562793],[-83.069092,41.600635],[-83.242578,41.661914],[-83.290723,41.693262],[-83.352246,41.714014],[-83.442969,41.724854],[-83.456201,41.74248],[-83.441162,41.766211],[-83.362061,41.879883],[-83.316162,41.923291],[-83.297217,41.935059],[-83.27251,41.93457],[-83.261816,41.946387],[-83.265234,41.970557],[-83.255566,41.985596],[-83.204785,42.027051],[-83.176562,42.048926],[-83.188428,42.083398],[-83.175244,42.146289],[-83.142139,42.227637],[-83.104834,42.286426]],[[-78.990283,42.991553],[-78.990283,42.991553],[-78.990283,42.991553],[-78.990283,42.991553],[-78.960547,42.988232],[-78.929932,43.022461],[-78.913867,43.042334],[-78.916211,43.053174],[-78.987988,43.063525],[-79.01416,43.051514],[-79.019434,43.024219],[-79.012012,43.002686],[-78.990283,42.991553]],[[-82.638232,41.746875],[-82.638232,41.746875],[-82.638232,41.746875],[-82.638232,41.746875],[-82.627197,41.771143],[-82.642871,41.81543],[-82.654395,41.827441],[-82.674414,41.806055],[-82.685449,41.75708],[-82.684521,41.73584],[-82.638232,41.746875]]]}},{"type":"Feature","properties":{"name":"Lake Ontario","scalerank":0},"bbox":[-79.77417,43.197705,-75.775684,44.494678],"geometry":{"type":"Polygon","coordinates":[[[-75.786572,44.484326],[-75.786572,44.484326],[-75.786572,44.484326],[-75.775684,44.458887],[-75.790918,44.429883],[-75.832178,44.397266],[-76.237793,44.183203],[-76.352441,44.106055],[-76.309668,44.062744],[-76.306055,44.043213],[-76.280615,44.046484],[-76.197607,44.083496],[-76.173291,44.079443],[-76.16123,44.069336],[-76.15415,44.04541],[-76.192285,44.003369],[-76.175439,43.993799],[-76.101904,44.003174],[-76.070654,43.998486],[-76.098682,43.966992],[-76.136475,43.946631],[-76.142676,43.926855],[-76.19834,43.874463],[-76.222754,43.863818],[-76.236426,43.870947],[-76.23252,43.894531],[-76.284619,43.869238],[-76.288184,43.84873],[-76.258203,43.829102],[-76.234863,43.798779],[-76.218115,43.757812],[-76.209717,43.670312],[-76.199316,43.653076],[-76.19502,43.644824],[-76.199854,43.634717],[-76.204834,43.614258],[-76.193604,43.595801],[-76.202588,43.574512],[-76.231787,43.550439],[-76.2896,43.537305],[-76.376025,43.535059],[-76.472705,43.507275],[-76.579687,43.453809],[-76.653076,43.405029],[-76.692871,43.360937],[-76.722314,43.342627],[-76.741406,43.350049],[-76.885303,43.314014],[-76.93667,43.289746],[-76.949805,43.26792],[-76.963086,43.26377],[-76.976416,43.277393],[-77.079004,43.287695],[-77.270801,43.294531],[-77.420801,43.287744],[-77.529053,43.267383],[-77.624609,43.279102],[-77.707373,43.322852],[-77.838232,43.35708],[-78.174951,43.394678],[-78.457471,43.387549],[-78.689453,43.361475],[-79.053174,43.285107],[-79.213379,43.242285],[-79.291357,43.207471],[-79.337549,43.197705],[-79.401465,43.208691],[-79.527881,43.209521],[-79.638428,43.234912],[-79.727832,43.252832],[-79.773047,43.301123],[-79.77417,43.319824],[-79.656445,43.452832],[-79.610107,43.513281],[-79.596289,43.551807],[-79.569043,43.578271],[-79.498828,43.611963],[-79.480127,43.635986],[-79.445996,43.647119],[-79.396338,43.64541],[-79.302783,43.689697],[-79.165332,43.779883],[-79.060645,43.835156],[-78.988672,43.855469],[-78.793066,43.87627],[-78.669336,43.902441],[-78.580908,43.911963],[-78.527832,43.904834],[-78.445898,43.915625],[-78.334961,43.944434],[-78.186328,43.965527],[-77.999854,43.978906],[-77.880762,43.993945],[-77.829053,44.010693],[-77.726465,44.009277],[-77.708691,44.033301],[-77.681787,44.044824],[-77.583447,44.038379],[-77.549023,44.024756],[-77.54375,44.014453],[-77.567627,44.007666],[-77.554004,43.990332],[-77.502881,43.962549],[-77.420654,43.954004],[-77.324512,43.971582],[-77.258984,43.963965],[-77.275586,43.95166],[-77.310596,43.9521],[-77.314795,43.946533],[-77.289404,43.922754],[-77.267187,43.921631],[-77.190039,43.947607],[-77.185156,43.9375],[-77.219238,43.899658],[-77.207959,43.875977],[-77.151172,43.866455],[-77.054492,43.883008],[-76.934229,43.929688],[-76.879102,43.94292],[-76.870312,43.964941],[-76.91001,43.964941],[-77.013086,43.956543],[-77.042334,43.942773],[-77.043799,43.951904],[-77.024023,43.987207],[-76.930176,44.038379],[-76.888428,44.068018],[-76.862988,44.099902],[-76.889941,44.099316],[-76.969336,44.066309],[-77.040234,44.048633],[-77.102734,44.046338],[-77.116992,44.079492],[-77.083203,44.148096],[-77.115283,44.172949],[-77.271484,44.138672],[-77.289844,44.126855],[-77.290332,44.117529],[-77.272949,44.110693],[-77.274854,44.104199],[-77.295996,44.097949],[-77.331641,44.104199],[-77.331348,44.119043],[-77.313965,44.142676],[-77.332715,44.15293],[-77.380713,44.145801],[-77.44585,44.130762],[-77.585742,44.084326],[-77.584375,44.094336],[-77.547217,44.12373],[-77.398096,44.160645],[-77.325684,44.178076],[-77.279639,44.175586],[-77.250781,44.188818],[-77.225342,44.18877],[-77.20332,44.175391],[-77.147754,44.180811],[-77.058691,44.205078],[-77.020459,44.196924],[-77.033105,44.156445],[-77.01001,44.152881],[-76.951074,44.18623],[-76.913086,44.197754],[-76.896045,44.187549],[-77.020947,44.133105],[-77.055273,44.106396],[-77.062256,44.091162],[-77.041309,44.071094],[-76.991504,44.074121],[-76.787012,44.182227],[-76.687695,44.217969],[-76.588867,44.238477],[-76.490479,44.243701],[-76.407812,44.262451],[-76.340723,44.294727],[-76.057227,44.366602],[-75.941602,44.410791],[-75.831396,44.48999],[-75.805127,44.494678],[-75.786572,44.484326]],[[-76.687549,44.1375],[-76.687549,44.1375],[-76.687549,44.1375],[-76.639551,44.181396],[-76.642627,44.199268],[-76.760693,44.172168],[-76.799365,44.155127],[-76.809473,44.139893],[-76.786719,44.13042],[-76.731055,44.126709],[-76.687549,44.1375]],[[-76.275146,44.008594],[-76.275146,44.008594],[-76.275146,44.008594],[-76.27666,43.987061],[-76.262012,43.990137],[-76.231299,44.017773],[-76.230566,44.028516],[-76.259814,44.022412],[-76.275146,44.008594]],[[-76.236963,44.232617],[-76.236963,44.232617],[-76.236963,44.232617],[-76.227051,44.254102],[-76.27915,44.246631],[-76.32876,44.239209],[-76.430469,44.226807],[-76.451465,44.202295],[-76.48335,44.178516],[-76.491797,44.161963],[-76.476709,44.152832],[-76.474316,44.141455],[-76.484521,44.127783],[-76.469336,44.124512],[-76.422705,44.121533],[-76.364893,44.156348],[-76.352734,44.175537],[-76.32959,44.207812],[-76.236963,44.232617]],[[-76.080566,44.294727],[-76.080566,44.294727],[-76.080566,44.294727],[-76.075439,44.305762],[-76.119141,44.305859],[-76.145215,44.29209],[-76.150293,44.281055],[-76.142725,44.269238],[-76.11123,44.277295],[-76.080566,44.294727]]]}},{"type":"Feature","properties":{"name":"Lake Saint Clair","scalerank":0},"bbox":[-83.104834,42.275488,-82.413525,42.696924],"geometry":{"type":"Polygon","coordinates":[[[-83.076465,42.275488],[-83.104834,42.286426],[-83.063379,42.322656],[-83.016504,42.347119],[-82.925977,42.375488],[-82.902002,42.393994],[-82.883398,42.441846],[-82.870117,42.518994],[-82.840967,42.568115],[-82.795996,42.589111],[-82.783789,42.612744],[-82.804443,42.638916],[-82.787354,42.664551],[-82.732617,42.689551],[-82.686768,42.696924],[-82.649902,42.686572],[-82.632812,42.661035],[-82.62998,42.594531],[-82.639111,42.574365],[-82.645117,42.558057],[-82.633936,42.542383],[-82.613037,42.524609],[-82.481104,42.499854],[-82.453027,42.495459],[-82.432129,42.497803],[-82.418457,42.472266],[-82.413525,42.411084],[-82.427979,42.366699],[-82.461865,42.339111],[-82.515723,42.321777],[-82.589502,42.314551],[-82.867334,42.335254],[-82.970605,42.326758],[-83.013623,42.311865],[-83.04668,42.297021],[-83.076465,42.275488]]]}},{"type":"Feature","properties":{"name":"Lake Michigan","scalerank":0},"bbox":[-88.028271,41.637646,-84.756934,46.108643],"geometry":{"type":"Polygon","coordinates":[[[-84.762598,45.792383],[-84.771973,45.794775],[-84.805957,45.775049],[-84.865869,45.768555],[-84.951514,45.775391],[-84.981396,45.767041],[-84.955469,45.743408],[-84.97749,45.706543],[-85.047363,45.656396],[-85.087793,45.605273],[-85.09873,45.553125],[-85.087695,45.506885],[-85.054688,45.46665],[-85.006396,45.440479],[-84.942871,45.428564],[-84.929834,45.412598],[-84.967139,45.392676],[-85.032959,45.38125],[-85.127344,45.378467],[-85.222852,45.356152],[-85.319482,45.314453],[-85.375684,45.276953],[-85.391455,45.243799],[-85.393994,45.195654],[-85.381592,45.078271],[-85.389014,45.032764],[-85.430371,44.949316],[-85.484717,44.840332],[-85.549365,44.771875],[-85.561475,44.78125],[-85.550928,44.814648],[-85.497119,44.923828],[-85.488916,44.970117],[-85.494092,44.994434],[-85.512646,44.996777],[-85.533887,44.975586],[-85.557764,44.930957],[-85.562842,44.906738],[-85.549219,44.902979],[-85.559326,44.872656],[-85.593262,44.815674],[-85.62251,44.803955],[-85.647217,44.8375],[-85.645312,44.881641],[-85.604687,44.969922],[-85.619238,44.987061],[-85.595703,45.041943],[-85.585254,45.081982],[-85.597412,45.12334],[-85.587744,45.161328],[-85.556201,45.195996],[-85.565869,45.206543],[-85.616602,45.19292],[-85.689355,45.128076],[-85.784131,45.012158],[-85.857812,44.961523],[-85.910498,44.976318],[-85.95293,44.96665],[-85.98501,44.93252],[-86.019922,44.915723],[-86.057666,44.916357],[-86.080469,44.875879],[-86.088428,44.794238],[-86.12583,44.747754],[-86.237012,44.720215],[-86.25874,44.699023],[-86.260693,44.668848],[-86.242725,44.629736],[-86.242188,44.551318],[-86.259082,44.433594],[-86.295898,44.330615],[-86.352734,44.242383],[-86.41543,44.169482],[-86.519189,44.07373],[-86.520947,44.054736],[-86.469922,43.979785],[-86.448633,43.923975],[-86.438037,43.812744],[-86.440576,43.794287],[-86.540527,43.656934],[-86.542139,43.637305],[-86.43501,43.407129],[-86.340186,43.241748],[-86.32915,43.224121],[-86.300879,43.158057],[-86.248486,43.028809],[-86.221533,42.900439],[-86.22002,42.773096],[-86.232715,42.65],[-86.259619,42.531201],[-86.299561,42.417627],[-86.35249,42.309326],[-86.407373,42.22373],[-86.520166,42.082275],[-86.575342,41.987695],[-86.632471,41.911328],[-86.691553,41.853369],[-86.798193,41.788525],[-87.072607,41.669482],[-87.158691,41.646387],[-87.253223,41.637646],[-87.35625,41.643262],[-87.4125,41.656494],[-87.425,41.678564],[-87.447021,41.680762],[-87.476953,41.695459],[-87.514648,41.720654],[-87.556592,41.765967],[-87.602051,41.859131],[-87.651123,42.000244],[-87.694629,42.084375],[-87.73252,42.111523],[-87.766797,42.153906],[-87.797461,42.211426],[-87.8125,42.341064],[-87.811963,42.542969],[-87.80166,42.680371],[-87.781396,42.753418],[-87.787061,42.80918],[-87.818701,42.847705],[-87.838184,42.895654],[-87.845557,42.953076],[-87.862061,42.991992],[-87.887744,43.012451],[-87.893408,43.041113],[-87.879004,43.077832],[-87.878857,43.103125],[-87.892773,43.116895],[-87.896094,43.137402],[-87.888818,43.164551],[-87.90166,43.244922],[-87.898389,43.293799],[-87.880713,43.347021],[-87.823926,43.443018],[-87.805566,43.490088],[-87.800879,43.538086],[-87.774023,43.598877],[-87.699707,43.72373],[-87.697949,43.752441],[-87.723389,43.809082],[-87.729395,43.851172],[-87.723828,43.907275],[-87.700146,43.976611],[-87.658496,44.059033],[-87.603418,44.124951],[-87.534912,44.174268],[-87.5125,44.230273],[-87.536133,44.292969],[-87.527441,44.385693],[-87.486523,44.508594],[-87.440869,44.600684],[-87.390527,44.661963],[-87.356055,44.720361],[-87.337305,44.77583],[-87.345605,44.800635],[-87.383105,44.8271],[-87.41958,44.865625],[-87.480176,44.874121],[-87.555371,44.848584],[-87.566016,44.850293],[-87.604395,44.846875],[-87.676611,44.790283],[-87.740918,44.692041],[-87.787549,44.651562],[-87.851074,44.624023],[-87.898242,44.593359],[-87.929004,44.559473],[-87.969238,44.552002],[-88.01875,44.571143],[-88.028271,44.61792],[-87.997803,44.692334],[-87.951562,44.763721],[-87.856787,44.880371],[-87.853564,44.908301],[-87.830273,44.94248],[-87.683203,44.992627],[-87.627002,45.032275],[-87.607764,45.082666],[-87.602246,45.157031],[-87.592822,45.177832],[-87.571191,45.186621],[-87.506494,45.248877],[-87.398779,45.364648],[-87.302051,45.484131],[-87.216406,45.607324],[-87.15376,45.676758],[-87.11416,45.69248],[-87.084863,45.729785],[-87.039258,45.84458],[-87.005029,45.897168],[-86.982324,45.917285],[-86.971094,45.90498],[-86.99292,45.841895],[-86.992773,45.789648],[-86.974219,45.723145],[-86.937891,45.700244],[-86.883887,45.720947],[-86.837451,45.764795],[-86.798535,45.831787],[-86.753613,45.859473],[-86.702783,45.847949],[-86.660645,45.852295],[-86.627197,45.87251],[-86.56333,45.88252],[-86.551514,45.85708],[-86.559277,45.806299],[-86.579541,45.781836],[-86.612256,45.783643],[-86.649512,45.756836],[-86.691406,45.701416],[-86.689697,45.657324],[-86.644434,45.624512],[-86.621973,45.622754],[-86.622363,45.652002],[-86.601172,45.681641],[-86.533887,45.735645],[-86.52749,45.753174],[-86.399561,45.800684],[-86.351318,45.830957],[-86.338086,45.865723],[-86.271777,45.93667],[-86.208936,45.959326],[-86.122949,45.968945],[-86.039746,45.962695],[-85.959326,45.940674],[-85.913721,45.941162],[-85.902881,45.964209],[-85.834229,45.979687],[-85.707812,45.987598],[-85.614795,46.020459],[-85.555078,46.078174],[-85.478809,46.107568],[-85.385937,46.108643],[-85.259863,46.088184],[-85.100635,46.046191],[-84.971826,45.988965],[-84.801855,45.874365],[-84.756934,45.862793],[-84.762598,45.792383]],[[-85.492334,45.760205],[-85.538525,45.775391],[-85.572852,45.737891],[-85.607715,45.656055],[-85.612061,45.609277],[-85.585938,45.59751],[-85.55166,45.602588],[-85.509082,45.624463],[-85.492334,45.662891],[-85.501465,45.750244],[-85.492334,45.760205],[-85.492334,45.760205],[-85.492334,45.760205]],[[-86.052441,45.156396],[-86.05957,45.146826],[-86.037939,45.102832],[-86.015771,45.08916],[-85.988184,45.087988],[-85.976221,45.102148],[-85.979834,45.131641],[-85.998486,45.150146],[-86.052441,45.156396],[-86.052441,45.156396],[-86.052441,45.156396]],[[-86.926318,45.414941],[-86.937988,45.425586],[-86.966699,45.368311],[-86.946875,45.345703],[-86.891943,45.342285],[-86.861865,45.352246],[-86.856592,45.394385],[-86.861865,45.408594],[-86.878467,45.41416],[-86.926318,45.414941],[-86.926318,45.414941],[-86.926318,45.414941]],[[-87.049121,45.302881],[-87.088135,45.27915],[-87.122021,45.224512],[-87.166406,45.189502],[-87.221143,45.173975],[-87.258789,45.137988],[-87.279346,45.081494],[-87.315527,45.031104],[-87.396484,44.95415],[-87.403027,44.932861],[-87.398242,44.90293],[-87.382031,44.864258],[-87.35459,44.838818],[-87.31582,44.826562],[-87.280273,44.834863],[-87.188086,44.921973],[-87.179492,44.941064],[-87.191309,44.950244],[-87.178564,44.983398],[-87.141357,45.040674],[-87.113916,45.068457],[-87.096338,45.066748],[-87.078027,45.078125],[-87.058936,45.102441],[-87.061523,45.124902],[-87.085693,45.14541],[-87.08418,45.153955],[-87.056885,45.150537],[-87.046631,45.171875],[-87.053564,45.21792],[-87.041504,45.23667],[-87.010352,45.228174],[-86.991895,45.241016],[-86.985937,45.275195],[-87.005029,45.295801],[-87.049121,45.302881],[-87.049121,45.302881],[-87.049121,45.302881]]]}},{"type":"Feature","properties":{"name":"Lake Superior","scalerank":0},"bbox":[-92.107031,46.436084,-84.343945,49.001416],"geometry":{"type":"Polygon","coordinates":[[[-84.432422,46.52207],[-84.343945,46.531152],[-84.358008,46.504687],[-84.386963,46.502246],[-84.42417,46.490674],[-84.467187,46.464209],[-84.528369,46.436084],[-84.591504,46.443115],[-84.634863,46.482275],[-84.697314,46.490723],[-84.778809,46.468359],[-84.851172,46.469482],[-84.914307,46.493994],[-85.034326,46.505762],[-85.048633,46.523877],[-85.046289,46.543018],[-85.027393,46.563135],[-85.016748,46.610937],[-85.014502,46.686475],[-84.998193,46.739697],[-84.96792,46.770703],[-85.014648,46.783496],[-85.138428,46.778027],[-85.280713,46.752441],[-85.441504,46.706641],[-85.616113,46.690576],[-85.804492,46.704248],[-85.946777,46.702148],[-86.104639,46.679248],[-86.132031,46.686816],[-86.231348,46.65625],[-86.402686,46.587744],[-86.531006,46.524414],[-86.6375,46.452979],[-86.653906,46.452246],[-86.679053,46.468213],[-86.73291,46.490137],[-86.790381,46.49082],[-86.851465,46.470215],[-86.913623,46.483301],[-86.976758,46.530078],[-87.034131,46.543213],[-87.085693,46.522705],[-87.170654,46.513525],[-87.358105,46.524414],[-87.377832,46.539551],[-87.394482,46.590088],[-87.414893,46.612061],[-87.451221,46.627441],[-87.509473,46.683447],[-87.6375,46.826514],[-87.6729,46.843555],[-87.777588,46.887891],[-87.8771,46.907715],[-88.12915,46.935498],[-88.18374,46.955322],[-88.21626,46.951562],[-88.383008,46.874316],[-88.389941,46.857422],[-88.4,46.840918],[-88.427295,46.813916],[-88.449121,46.801514],[-88.462744,46.81416],[-88.476074,46.836719],[-88.47373,46.886279],[-88.455859,46.962842],[-88.466016,47.012549],[-88.504395,47.035449],[-88.52085,47.063086],[-88.51543,47.095508],[-88.543262,47.121582],[-88.604395,47.14126],[-88.632715,47.166895],[-88.628223,47.198633],[-88.634131,47.220312],[-88.650488,47.231982],[-88.715625,47.207178],[-88.829639,47.14585],[-88.907129,47.091113],[-88.948096,47.042969],[-89.009131,47.015723],[-89.090234,47.009277],[-89.154785,46.988623],[-89.269434,46.918164],[-89.35498,46.881934],[-89.496826,46.85542],[-89.695117,46.838574],[-89.860596,46.792773],[-89.993262,46.71792],[-90.153564,46.654492],[-90.341357,46.60249],[-90.468848,46.584131],[-90.536133,46.599365],[-90.616504,46.631348],[-90.736816,46.688867],[-90.754346,46.683545],[-90.74502,46.67168],[-90.747559,46.661865],[-90.769971,46.64541],[-90.922998,46.603076],[-90.943506,46.618994],[-90.886426,46.67749],[-90.863916,46.720801],[-90.865332,46.760693],[-90.839893,46.809961],[-90.787695,46.868408],[-90.768359,46.908008],[-90.781934,46.928711],[-90.839941,46.962451],[-90.88667,46.964795],[-90.946045,46.95376],[-91.127246,46.867676],[-91.14541,46.874316],[-91.203369,46.888037],[-91.217627,46.885645],[-91.356982,46.810742],[-91.499072,46.766113],[-91.835645,46.7021],[-91.920801,46.694434],[-91.987305,46.698975],[-92.072803,46.736182],[-92.107031,46.761865],[-92.104248,46.789404],[-92.064551,46.818848],[-91.645166,47.050049],[-91.386279,47.214746],[-90.957129,47.52373],[-90.846729,47.585254],[-90.597461,47.687744],[-90.197266,47.786426],[-89.999854,47.841162],[-89.82876,47.900879],[-89.719531,47.946729],[-89.67207,47.978711],[-89.633838,47.993701],[-89.604736,47.99165],[-89.547461,48.012939],[-89.449658,48.092236],[-89.438477,48.098779],[-89.34541,48.121143],[-89.315137,48.158984],[-89.29668,48.204248],[-89.252246,48.279736],[-89.221484,48.310742],[-89.213916,48.344922],[-89.229395,48.382275],[-89.225,48.417578],[-89.200732,48.45083],[-89.086426,48.497656],[-88.774561,48.583057],[-88.76377,48.572363],[-88.818262,48.506445],[-88.876416,48.381494],[-88.896924,48.378076],[-88.915674,48.362744],[-88.932715,48.3354],[-88.888477,48.337305],[-88.782861,48.368311],[-88.734375,48.384082],[-88.721924,48.4146],[-88.705713,48.476123],[-88.683154,48.510107],[-88.654102,48.516553],[-88.634863,48.546094],[-88.625293,48.59873],[-88.6021,48.629932],[-88.565332,48.639844],[-88.549609,48.658154],[-88.551953,48.68374],[-88.542432,48.753223],[-88.535156,48.785693],[-88.502637,48.833057],[-88.457617,48.847852],[-88.395312,48.844873],[-88.352441,48.820801],[-88.32915,48.775684],[-88.322852,48.738477],[-88.333594,48.709082],[-88.393799,48.655811],[-88.566504,48.528027],[-88.584521,48.492432],[-88.569336,48.473926],[-88.559375,48.446826],[-88.53877,48.443408],[-88.500928,48.466992],[-88.484473,48.488086],[-88.489453,48.506592],[-88.47583,48.530664],[-88.443506,48.560254],[-88.418164,48.569141],[-88.399658,48.557275],[-88.36875,48.562402],[-88.325488,48.584473],[-88.247998,48.595947],[-88.233105,48.596973],[-88.138428,48.682861],[-88.10918,48.73291],[-88.108789,48.775977],[-88.147217,48.820752],[-88.224316,48.867139],[-88.246582,48.916992],[-88.248633,48.941895],[-88.263574,48.973682],[-88.247559,48.985547],[-88.200439,48.977441],[-88.160645,48.981641],[-88.128223,48.998145],[-88.069824,49.001416],[-88.02251,48.998682],[-87.965625,48.958691],[-87.760937,48.919922],[-87.685254,48.899219],[-87.591602,48.878174],[-87.567773,48.87124],[-87.552002,48.84834],[-87.517285,48.838574],[-87.463721,48.842041],[-87.40708,48.834814],[-87.311426,48.799414],[-87.223633,48.775781],[-87.084717,48.778906],[-87.008545,48.788818],[-86.887646,48.772412],[-86.819873,48.772559],[-86.751562,48.800586],[-86.692529,48.80791],[-86.642871,48.79458],[-86.621436,48.77749],[-86.580957,48.753027],[-86.459277,48.764941],[-86.432422,48.758154],[-86.396143,48.731299],[-86.390186,48.714111],[-86.370996,48.687549],[-86.324951,48.636621],[-86.314258,48.619092],[-86.282568,48.597949],[-86.256982,48.548437],[-86.237402,48.470605],[-86.215527,48.422949],[-86.191357,48.405566],[-86.181006,48.385352],[-86.158936,48.303955],[-86.10415,48.210303],[-86.022412,48.118799],[-85.913623,48.029541],[-85.777686,47.970166],[-85.6146,47.940723],[-85.469531,47.934082],[-85.34248,47.950244],[-85.173828,47.958984],[-84.963574,47.960205],[-84.854736,47.949951],[-84.847266,47.928027],[-84.867383,47.896436],[-84.915186,47.855127],[-84.920264,47.827881],[-84.922461,47.792578],[-84.960986,47.745801],[-84.981104,47.717627],[-84.974805,47.697998],[-84.98584,47.671729],[-85.014258,47.63877],[-84.997607,47.594775],[-84.93584,47.539844],[-84.860449,47.495508],[-84.771338,47.46167],[-84.715625,47.42666],[-84.693311,47.390479],[-84.668457,47.370605],[-84.641162,47.367041],[-84.616455,47.350244],[-84.594336,47.320215],[-84.618262,47.267187],[-84.688184,47.191162],[-84.719531,47.14209],[-84.712305,47.119873],[-84.77168,47.036719],[-84.775146,47.004004],[-84.750391,46.98125],[-84.655664,46.948975],[-84.624902,46.922363],[-84.600342,46.918408],[-84.58208,46.937158],[-84.54458,46.945703],[-84.487988,46.944043],[-84.434766,46.930762],[-84.38501,46.905762],[-84.367432,46.87998],[-84.382031,46.85332],[-84.407764,46.843652],[-84.48457,46.847656],[-84.527734,46.833984],[-84.553467,46.805566],[-84.561035,46.729785],[-84.539941,46.697314],[-84.527539,46.697363],[-84.510254,46.712744],[-84.488086,46.743506],[-84.464014,46.746924],[-84.438135,46.723047],[-84.465967,46.674072],[-84.547607,46.599951],[-84.568555,46.57666],[-84.568457,46.543311],[-84.500537,46.483252],[-84.475439,46.489014],[-84.458887,46.503857],[-84.432422,46.52207]],[[-90.755713,46.964795],[-90.765967,46.95083],[-90.76084,46.937012],[-90.722754,46.920117],[-90.707959,46.927344],[-90.713086,46.941162],[-90.738086,46.961572],[-90.755713,46.964795]],[[-90.653369,46.827686],[-90.588867,46.85542],[-90.596094,46.868848],[-90.619141,46.869971],[-90.752295,46.813623],[-90.78208,46.791064],[-90.791602,46.772314],[-90.767725,46.769775],[-90.710547,46.78335],[-90.680469,46.797803],[-90.677539,46.813037],[-90.653369,46.827686]],[[-90.54668,46.919287],[-90.534814,46.954297],[-90.542627,46.962744],[-90.575879,46.956982],[-90.650439,46.936768],[-90.651807,46.922266],[-90.57998,46.913525],[-90.54668,46.919287]],[[-90.410156,47.04375],[-90.409717,47.063672],[-90.422119,47.071143],[-90.447363,47.066162],[-90.463867,47.048291],[-90.471729,47.017529],[-90.459326,47.010107],[-90.42666,47.025879],[-90.410156,47.04375]],[[-88.056738,48.836768],[-88.086572,48.808008],[-88.075684,48.740625],[-88.056689,48.716699],[-88.030908,48.717529],[-87.998437,48.743213],[-87.941211,48.756836],[-87.859229,48.75835],[-87.816309,48.767871],[-87.812354,48.785352],[-87.782129,48.79541],[-87.770215,48.810937],[-87.765137,48.841113],[-87.813428,48.859033],[-87.915039,48.864648],[-87.996143,48.857227],[-88.056738,48.836768]],[[-88.911035,47.93623],[-88.624756,48.042041],[-88.593066,48.071973],[-88.596826,48.087451],[-88.581299,48.110742],[-88.484863,48.167432],[-88.499219,48.175928],[-88.588281,48.158496],[-88.755518,48.103516],[-89.146631,47.952637],[-89.192627,47.928955],[-89.200098,47.91709],[-89.169092,47.91709],[-89.168799,47.902148],[-89.19917,47.872266],[-89.195215,47.851807],[-89.156787,47.840771],[-89.081641,47.850586],[-88.969873,47.88125],[-88.930371,47.89624],[-88.92373,47.904541],[-88.960107,47.909473],[-88.955176,47.926025],[-88.911035,47.93623]],[[-87.790479,47.411426],[-87.741016,47.433643],[-87.793457,47.467285],[-87.87793,47.48418],[-87.994287,47.484229],[-88.110205,47.47251],[-88.320312,47.421094],[-88.394336,47.388721],[-88.561963,47.272168],[-88.608887,47.217187],[-88.615723,47.17417],[-88.57373,47.143311],[-88.434082,47.122314],[-88.427051,47.136572],[-88.433154,47.143359],[-88.453809,47.151855],[-88.416748,47.191455],[-88.40542,47.175488],[-88.409082,47.131445],[-88.438428,47.099561],[-88.468457,47.077246],[-88.468652,47.047607],[-88.439062,47.010742],[-88.402246,47.019287],[-88.358203,47.073389],[-88.236768,47.158936],[-88.240381,47.17832],[-88.221875,47.210596],[-88.015527,47.32085],[-87.974902,47.354932],[-87.983057,47.36792],[-88.026953,47.386328],[-88.020654,47.392383],[-87.790479,47.411426]],[[-87.690283,48.75],[-87.62168,48.756885],[-87.626025,48.78042],[-87.666992,48.821436],[-87.7021,48.841406],[-87.731348,48.840479],[-87.748193,48.834668],[-87.752686,48.824072],[-87.731055,48.793848],[-87.729932,48.778418],[-87.743701,48.76416],[-87.730469,48.754687],[-87.690283,48.75]],[[-85.605859,47.742139],[-85.596094,47.75708],[-85.641113,47.781787],[-85.765137,47.806738],[-85.827441,47.804492],[-85.882715,47.791016],[-85.930908,47.766455],[-85.950732,47.747314],[-85.942187,47.73374],[-85.858594,47.719092],[-85.666016,47.73335],[-85.605859,47.742139]]]}},{"type":"Feature","properties":{"name":"Lake Huron","scalerank":0},"bbox":[-84.762598,43.017383,-79.67793,46.562598],"geometry":{"type":"Polygon","coordinates":[[[-84.343945,46.531152],[-84.235645,46.556787],[-84.165381,46.562598],[-84.118262,46.539453],[-84.087109,46.506982],[-84.083838,46.47251],[-84.106152,46.430469],[-84.108789,46.393213],[-84.091846,46.36084],[-84.033643,46.343799],[-83.934229,46.342041],[-83.881738,46.33291],[-83.863135,46.306201],[-83.842725,46.301953],[-83.660645,46.289844],[-83.592773,46.277832],[-83.571729,46.260498],[-83.459131,46.237646],[-83.025488,46.181299],[-82.894727,46.188428],[-82.719141,46.207129],[-82.663623,46.175928],[-82.638135,46.172412],[-82.597656,46.1771],[-82.350049,46.193262],[-82.317725,46.162939],[-82.195996,46.133936],[-82.11582,46.131641],[-82.011768,46.128711],[-81.816602,46.114746],[-81.769287,46.104443],[-81.765771,46.071436],[-81.765186,46.05791],[-81.750195,46.057471],[-81.727051,46.073096],[-81.688672,46.078809],[-81.661719,46.092871],[-81.646191,46.115283],[-81.615332,46.119385],[-81.544531,46.090381],[-81.54165,46.074658],[-81.640234,46.040039],[-81.629492,46.025391],[-81.623828,46.016699],[-81.597266,46.011914],[-81.594971,45.996387],[-81.627051,45.978027],[-81.596729,45.966553],[-81.502393,45.992969],[-81.449414,45.994434],[-81.303516,45.974121],[-81.236816,45.974121],[-81.196973,45.990967],[-81.191309,46.006152],[-81.173682,46.016064],[-81.162012,46.012061],[-81.15752,45.991699],[-81.160254,45.954883],[-81.097021,45.941602],[-80.967969,45.951807],[-80.89043,45.951025],[-80.817773,45.951025],[-80.805176,45.94248],[-80.786621,45.919141],[-80.731592,45.877246],[-80.713379,45.858496],[-80.696436,45.815918],[-80.656152,45.790234],[-80.643115,45.767187],[-80.641016,45.747266],[-80.628857,45.727148],[-80.592676,45.682031],[-80.545508,45.650049],[-80.519922,45.622559],[-80.510693,45.589746],[-80.485547,45.576953],[-80.444287,45.584131],[-80.427051,45.597803],[-80.429492,45.625244],[-80.414014,45.619873],[-80.388525,45.573584],[-80.391748,45.500537],[-80.384863,45.458398],[-80.349609,45.399268],[-80.30249,45.383105],[-80.270703,45.360156],[-80.177295,45.343848],[-80.167676,45.348486],[-80.185498,45.386572],[-80.176123,45.396582],[-80.144824,45.398828],[-80.09165,45.393359],[-80.05708,45.374561],[-80.041113,45.342383],[-80.049707,45.301123],[-80.111475,45.259229],[-80.121094,45.22334],[-80.107568,45.200977],[-80.092187,45.196875],[-80.074902,45.211035],[-80.049365,45.204053],[-80.015381,45.175879],[-80.006494,45.153271],[-80.022656,45.136133],[-80.08335,45.126416],[-80.085938,45.109375],[-80.021582,45.072119],[-79.971875,45.022168],[-79.946094,45.017187],[-79.931787,45.001221],[-79.928906,44.974365],[-79.902393,44.956543],[-79.828369,44.936328],[-79.799951,44.884863],[-79.78457,44.85415],[-79.771582,44.819336],[-79.749609,44.815479],[-79.732764,44.832031],[-79.732471,44.862939],[-79.695947,44.875146],[-79.692383,44.858789],[-79.713379,44.821143],[-79.708594,44.791162],[-79.67793,44.768945],[-79.717383,44.761182],[-79.826953,44.768018],[-79.87627,44.798535],[-79.891309,44.809375],[-79.924951,44.812891],[-79.935303,44.823535],[-79.92041,44.854541],[-79.92959,44.862988],[-79.996777,44.855713],[-80.064746,44.833594],[-80.108203,44.806787],[-80.10791,44.775488],[-80.078906,44.743115],[-80.021143,44.709521],[-79.997461,44.652344],[-80.007812,44.57168],[-80.036963,44.517383],[-80.084814,44.489355],[-80.225977,44.509521],[-80.460254,44.577783],[-80.592871,44.638525],[-80.649512,44.721289],[-80.670166,44.727002],[-80.789844,44.700293],[-80.854053,44.666113],[-80.909668,44.617578],[-80.925391,44.632861],[-80.901172,44.712012],[-80.891162,44.761328],[-80.895361,44.780957],[-80.919434,44.796777],[-80.963477,44.808984],[-81.021973,44.802148],[-81.110254,44.765332],[-81.130176,44.769678],[-81.127539,44.782422],[-81.036426,44.842822],[-81.006348,44.876172],[-81.005957,44.906934],[-80.992578,44.934375],[-80.96626,44.958643],[-80.972754,44.969629],[-81.012012,44.967334],[-81.032031,44.956934],[-81.074023,44.91377],[-81.133594,44.917871],[-81.141113,44.927783],[-81.125,44.952539],[-81.137939,44.968066],[-81.17998,44.974365],[-81.193311,45.002637],[-81.207373,45.008691],[-81.259521,45.02832],[-81.26416,45.081348],[-81.281836,45.123975],[-81.312549,45.15625],[-81.31582,45.188672],[-81.285205,45.24126],[-81.296484,45.24873],[-81.399902,45.255615],[-81.595361,45.261963],[-81.697363,45.251221],[-81.706055,45.223486],[-81.683154,45.202832],[-81.628809,45.189111],[-81.590332,45.165869],[-81.577441,45.14541],[-81.541455,45.124902],[-81.499316,45.081445],[-81.451172,45.01499],[-81.415479,44.987354],[-81.376953,44.984131],[-81.355225,44.977539],[-81.35835,44.911035],[-81.341113,44.869922],[-81.300049,44.831982],[-81.278174,44.789941],[-81.280713,44.71626],[-81.277734,44.643701],[-81.29751,44.59668],[-81.351904,44.542285],[-81.386768,44.496924],[-81.402197,44.460596],[-81.431348,44.436475],[-81.474316,44.424561],[-81.518848,44.398926],[-81.564941,44.359668],[-81.594971,44.31084],[-81.608936,44.252539],[-81.646631,44.19248],[-81.708105,44.130713],[-81.731982,44.0604],[-81.718359,43.981592],[-81.716504,43.642139],[-81.705176,43.557617],[-81.712793,43.474072],[-81.739404,43.391553],[-81.784521,43.326855],[-81.848193,43.280127],[-81.911377,43.245605],[-81.974121,43.223437],[-82.033057,43.185791],[-82.088086,43.132666],[-82.181055,43.085107],[-82.312012,43.043262],[-82.417236,43.017383],[-82.431934,43.038574],[-82.461279,43.081006],[-82.516211,43.279639],[-82.596729,43.634424],[-82.66333,43.854199],[-82.716113,43.939014],[-82.787744,44.003516],[-82.878223,44.047754],[-82.947217,44.066992],[-82.994629,44.061084],[-83.069482,44.025049],[-83.209277,43.993604],[-83.266602,43.972852],[-83.299463,43.945117],[-83.338135,43.928906],[-83.382568,43.924072],[-83.3875,43.916602],[-83.353076,43.906348],[-83.352979,43.879346],[-83.447363,43.758447],[-83.447363,43.758447],[-83.447363,43.758447],[-83.447363,43.758447],[-83.447363,43.758447],[-83.447363,43.758447],[-83.468896,43.730908],[-83.526025,43.720898],[-83.573096,43.697119],[-83.621582,43.636475],[-83.667871,43.620996],[-83.735205,43.62666],[-83.847998,43.663623],[-83.915674,43.700586],[-83.938281,43.737549],[-83.9396,43.781934],[-83.919775,43.833887],[-83.921582,43.875488],[-83.878809,43.962549],[-83.821436,43.993457],[-83.737695,44.000635],[-83.691504,44.014453],[-83.682812,44.03501],[-83.656982,44.049561],[-83.613965,44.058252],[-83.57749,44.113428],[-83.54751,44.215039],[-83.5125,44.270752],[-83.487402,44.280566],[-83.464209,44.277246],[-83.462793,44.264941],[-83.366211,44.330029],[-83.330566,44.375098],[-83.328369,44.421436],[-83.319287,44.556494],[-83.30791,44.643799],[-83.294238,44.68335],[-83.299561,44.785205],[-83.327783,44.869238],[-83.436182,44.961426],[-83.451562,44.991992],[-83.448145,45.024561],[-83.425928,45.058936],[-83.377832,45.066895],[-83.293066,45.040381],[-83.278711,45.046777],[-83.302295,45.062402],[-83.316113,45.093164],[-83.320166,45.138965],[-83.331104,45.164209],[-83.348975,45.168994],[-83.396191,45.221387],[-83.402588,45.24834],[-83.397266,45.273584],[-83.415283,45.299023],[-83.478516,45.338818],[-83.593652,45.379443],[-83.86875,45.456494],[-83.918262,45.486279],[-83.986328,45.503809],[-84.072803,45.509131],[-84.127734,45.532471],[-84.151123,45.573828],[-84.189258,45.611133],[-84.242285,45.644434],[-84.326318,45.666162],[-84.441406,45.67627],[-84.562939,45.712158],[-84.690918,45.773779],[-84.762598,45.792383],[-84.756934,45.862793],[-84.727393,45.861475],[-84.71333,45.870508],[-84.712695,45.881641],[-84.725391,45.894873],[-84.71709,45.943506],[-84.724902,45.95752],[-84.674658,46.033301],[-84.631543,46.052637],[-84.581494,46.045557],[-84.549902,46.029248],[-84.536865,46.003711],[-84.521289,45.99458],[-84.490332,45.99375],[-84.473096,45.98999],[-84.462939,45.99209],[-84.447314,46.006152],[-84.340918,45.999805],[-83.978809,45.961523],[-83.929199,45.967578],[-83.900977,45.980859],[-83.894141,46.001318],[-83.917432,46.020703],[-84.011963,46.061426],[-84.040771,46.088184],[-84.048389,46.113525],[-84.034717,46.137402],[-84.054883,46.158936],[-84.108838,46.178174],[-84.227051,46.183643],[-84.247949,46.203027],[-84.238477,46.222461],[-84.203662,46.246973],[-84.202246,46.283154],[-84.21333,46.303809],[-84.229053,46.36582],[-84.254785,46.407568],[-84.306738,46.469141],[-84.327441,46.491455],[-84.358008,46.504687],[-84.343945,46.531152]],[[-83.345264,45.992773],[-83.392285,45.988232],[-83.437402,45.963232],[-83.46665,45.936035],[-83.47998,45.906738],[-83.45332,45.884277],[-83.386572,45.868555],[-83.331982,45.880371],[-83.269189,45.946582],[-83.271045,45.961328],[-83.296387,45.97666],[-83.345264,45.992773],[-83.345264,45.992773],[-83.345264,45.992773]],[[-83.529004,46.023584],[-83.580078,46.080078],[-83.608203,46.096582],[-83.683887,46.10625],[-83.699414,46.095605],[-83.680225,46.07041],[-83.683252,46.057227],[-83.714795,46.0375],[-83.775,46.011084],[-83.820264,46.00498],[-83.850586,46.019141],[-83.871094,46.017383],[-83.875146,45.99126],[-83.865723,45.979102],[-83.823242,45.955664],[-83.730762,45.942969],[-83.588281,45.941113],[-83.518018,45.957861],[-83.49375,45.99082],[-83.503467,46.013135],[-83.529004,46.023584],[-83.529004,46.023584],[-83.529004,46.023584]],[[-83.828955,46.147656],[-83.808301,46.166602],[-83.79458,46.214307],[-83.822119,46.253467],[-83.891064,46.28418],[-83.970703,46.302979],[-84.061133,46.309766],[-84.097021,46.287598],[-84.078223,46.236426],[-84.03877,46.177051],[-83.978613,46.109424],[-83.930273,46.091699],[-83.906836,46.097217],[-83.887256,46.118896],[-83.875928,46.1479],[-83.856494,46.157471],[-83.828955,46.147656],[-83.828955,46.147656],[-83.828955,46.147656]],[[-84.16875,46.324463],[-84.188135,46.323486],[-84.195508,46.303418],[-84.184912,46.279443],[-84.134863,46.24043],[-84.120654,46.245898],[-84.115576,46.260791],[-84.11958,46.28501],[-84.137305,46.30625],[-84.16875,46.324463],[-84.16875,46.324463],[-84.16875,46.324463]],[[-84.132715,46.340674],[-84.132812,46.362207],[-84.163574,46.41001],[-84.165088,46.456787],[-84.137354,46.502588],[-84.142432,46.530908],[-84.180273,46.541797],[-84.215527,46.536084],[-84.27417,46.4875],[-84.235059,46.444531],[-84.209473,46.384277],[-84.188965,46.360059],[-84.163428,46.345557],[-84.132715,46.340674],[-84.132715,46.340674],[-84.132715,46.340674]],[[-84.429004,45.806543],[-84.557178,45.820459],[-84.563086,45.803857],[-84.4875,45.753516],[-84.441211,45.734473],[-84.412305,45.736279],[-84.390137,45.746582],[-84.374756,45.765381],[-84.380273,45.787695],[-84.416748,45.814307],[-84.429004,45.806543],[-84.429004,45.806543],[-84.429004,45.806543]],[[-82.962256,45.833447],[-82.93667,45.810986],[-82.735791,45.796729],[-82.625977,45.772168],[-82.5104,45.72749],[-82.409473,45.697998],[-82.323193,45.683594],[-82.256055,45.660107],[-82.208057,45.62749],[-82.091113,45.590869],[-82.075977,45.569678],[-82.055273,45.561328],[-82.029004,45.565967],[-81.821143,45.691553],[-81.759766,45.697559],[-81.75957,45.685156],[-81.864502,45.610596],[-81.902344,45.603076],[-81.922461,45.603711],[-81.976709,45.569873],[-81.977197,45.561426],[-81.946191,45.566113],[-81.914258,45.557471],[-81.88125,45.535498],[-81.828076,45.54668],[-81.754736,45.591113],[-81.685742,45.656689],[-81.593018,45.791699],[-81.601465,45.801172],[-81.685059,45.801367],[-81.698584,45.814844],[-81.672754,45.844678],[-81.664844,45.871924],[-81.674756,45.896484],[-81.698193,45.89375],[-81.735059,45.863672],[-81.763086,45.821191],[-81.79585,45.740381],[-81.80376,45.743213],[-81.838428,45.788428],[-81.841846,45.822754],[-81.828223,45.862158],[-81.840576,45.8854],[-81.879004,45.89248],[-81.897314,45.910303],[-81.895459,45.93877],[-81.909326,45.961768],[-81.938867,45.979248],[-81.987305,45.977051],[-82.05459,45.95498],[-82.106396,45.919092],[-82.142578,45.869434],[-82.175342,45.871143],[-82.20459,45.924219],[-82.235547,45.945801],[-82.268359,45.935937],[-82.287988,45.945166],[-82.294531,45.973437],[-82.332031,45.981982],[-82.400635,45.97085],[-82.444141,45.954785],[-82.462646,45.933887],[-82.480566,45.930273],[-82.497949,45.943896],[-82.527246,45.938623],[-82.568506,45.914404],[-82.580469,45.895508],[-82.55625,45.869922],[-82.56001,45.859619],[-82.52041,45.848926],[-82.514893,45.83335],[-82.531396,45.805762],[-82.554248,45.807031],[-82.583447,45.837012],[-82.607812,45.84751],[-82.627344,45.838574],[-82.644824,45.842627],[-82.660254,45.859668],[-82.690918,45.862891],[-82.736865,45.852344],[-82.7646,45.858154],[-82.774023,45.880322],[-82.793457,45.897559],[-82.822949,45.909814],[-82.83208,45.936182],[-82.820996,45.976562],[-82.845215,45.99043],[-82.904736,45.977783],[-82.944824,45.962695],[-82.965479,45.945215],[-82.995703,45.943457],[-83.0354,45.957422],[-83.069336,45.95459],[-83.097314,45.935059],[-83.124512,45.937939],[-83.15083,45.963232],[-83.176172,45.968896],[-83.200586,45.954883],[-83.21582,45.932666],[-83.221826,45.902148],[-83.160059,45.875195],[-82.962256,45.833447],[-82.962256,45.833447],[-82.962256,45.833447]],[[-81.712598,45.526318],[-81.735059,45.530566],[-81.828809,45.497656],[-81.8375,45.483984],[-81.832861,45.47251],[-81.814941,45.463232],[-81.788086,45.46582],[-81.727295,45.500488],[-81.712598,45.526318],[-81.712598,45.526318],[-81.712598,45.526318]],[[-80.173047,44.79624],[-80.174316,44.808887],[-80.157666,44.8479],[-80.171436,44.864844],[-80.21582,44.87168],[-80.236279,44.864502],[-80.232812,44.843311],[-80.215723,44.822656],[-80.173047,44.79624],[-80.173047,44.79624],[-80.173047,44.79624]]]}},{"type":"Feature","properties":{"name":"Lake Mistassini","scalerank":0},"bbox":[-74.219531,50.037744,-72.690137,51.397021],"geometry":{"type":"Polygon","coordinates":[[[-72.899902,51.14585],[-72.987793,51.103564],[-73.11377,50.996777],[-73.134521,50.988965],[-73.253809,50.9125],[-73.370508,50.844629],[-73.459326,50.793262],[-73.457959,50.81377],[-73.394336,50.892676],[-73.261523,50.977344],[-73.188672,51.069238],[-73.175049,51.071338],[-73.15127,51.06958],[-73.131543,51.090332],[-73.12915,51.105518],[-73.143359,51.144727],[-73.150684,51.156055],[-73.172949,51.157812],[-73.292773,51.076855],[-73.39624,50.993506],[-73.572949,50.835303],[-73.598877,50.824561],[-73.630811,50.824023],[-73.771094,50.640771],[-73.800098,50.595166],[-73.817383,50.499023],[-73.810498,50.451953],[-73.798779,50.412061],[-73.787891,50.389941],[-73.807373,50.387695],[-73.831836,50.412891],[-73.843164,50.405713],[-73.837061,50.340771],[-73.819336,50.300635],[-73.799512,50.236182],[-73.817676,50.211377],[-73.903662,50.161768],[-74.007861,50.12041],[-74.034326,50.090625],[-74.075684,50.042676],[-74.151709,50.037744],[-74.219531,50.057568],[-74.199707,50.075732],[-74.098047,50.091846],[-74.012793,50.178271],[-73.878857,50.217969],[-73.827637,50.249365],[-73.835889,50.27583],[-73.87959,50.297021],[-73.896094,50.327441],[-73.898779,50.352441],[-73.877734,50.381104],[-73.838623,50.639307],[-73.887109,50.589941],[-73.915674,50.543848],[-73.925879,50.51416],[-73.916895,50.48916],[-73.918555,50.474268],[-73.931641,50.457666],[-74.002393,50.478076],[-74.105469,50.398779],[-74.131885,50.403174],[-74.10376,50.447803],[-73.954053,50.721924],[-73.845264,50.888184],[-73.855908,50.897949],[-73.911377,50.897461],[-73.91582,50.910352],[-73.88999,50.953809],[-73.905176,50.962744],[-73.891895,50.981006],[-73.641455,51.077588],[-73.378271,51.240283],[-73.202344,51.319775],[-73.066943,51.390381],[-72.985889,51.397021],[-72.984375,51.378027],[-73.067187,51.317236],[-73.040479,51.309375],[-72.88999,51.354004],[-72.811328,51.360986],[-72.791895,51.353125],[-72.800098,51.335107],[-72.851074,51.304785],[-73.067432,51.206006],[-73.091504,51.178418],[-73.071826,51.160254],[-73.040869,51.154492],[-72.811279,51.244092],[-72.723486,51.254346],[-72.690137,51.240625],[-72.718555,51.217334],[-72.899902,51.14585],[-72.899902,51.14585],[-72.899902,51.14585]]]}},{"type":"Feature","properties":{"name":"Lake of the Woods","scalerank":0},"bbox":[-95.315479,48.863428,-94.041113,49.992676],"geometry":{"type":"Polygon","coordinates":[[[-94.052051,49.373145],[-94.052051,49.373145],[-94.052051,49.373145],[-94.041113,49.35835],[-94.047266,49.268018],[-94.065234,49.238379],[-94.092285,49.218896],[-94.118994,49.206348],[-94.128711,49.210449],[-94.114697,49.231055],[-94.109473,49.263428],[-94.182129,49.330322],[-94.221143,49.393604],[-94.278369,49.407324],[-94.251367,49.456934],[-94.254199,49.470898],[-94.364551,49.483447],[-94.473828,49.471729],[-94.646387,49.444922],[-94.745215,49.409033],[-94.769531,49.393359],[-94.790137,49.35332],[-94.778125,49.339697],[-94.640234,49.353564],[-94.608984,49.344824],[-94.577197,49.297852],[-94.52207,49.266895],[-94.464111,49.231982],[-94.354102,49.266016],[-94.302637,49.252588],[-94.271582,49.227148],[-94.267432,49.194238],[-94.23999,49.181152],[-94.098828,49.16709],[-94.074023,49.155371],[-94.117334,49.125928],[-94.196875,49.095752],[-94.26499,49.114062],[-94.309521,49.103613],[-94.323779,49.070898],[-94.536816,48.945117],[-94.712793,48.863428],[-94.817773,48.867822],[-94.915723,48.925635],[-95.002637,48.964307],[-95.037305,48.958838],[-95.179248,48.89668],[-95.273535,48.886182],[-95.312842,48.928076],[-95.315479,48.969971],[-95.267285,49.028955],[-95.265625,49.059619],[-95.276562,49.105322],[-95.260547,49.137061],[-95.198535,49.166455],[-95.085059,49.176465],[-94.982764,49.195312],[-94.935645,49.239844],[-94.940869,49.321045],[-95.008984,49.341992],[-95.014209,49.368213],[-94.940674,49.400098],[-94.909375,49.437109],[-94.822314,49.511621],[-94.690869,49.561035],[-94.64541,49.603076],[-94.650488,49.620703],[-94.688232,49.625635],[-94.744873,49.616211],[-94.795557,49.599072],[-94.91084,49.526367],[-94.985107,49.496582],[-95.107422,49.463379],[-95.138623,49.471875],[-95.116064,49.542627],[-95.15249,49.622412],[-95.099219,49.639258],[-95.008398,49.635449],[-94.961523,49.620703],[-94.973389,49.58418],[-94.958057,49.575391],[-94.92627,49.576025],[-94.888379,49.585059],[-94.840137,49.612598],[-94.870264,49.662695],[-94.822998,49.69043],[-94.588232,49.723779],[-94.559766,49.763818],[-94.57583,49.807324],[-94.678174,49.952734],[-94.658936,49.974463],[-94.614502,49.992676],[-94.588037,49.987988],[-94.538525,49.93125],[-94.530029,49.852734],[-94.496094,49.804102],[-94.450977,49.737549],[-94.346191,49.724463],[-94.312158,49.685156],[-94.332324,49.639355],[-94.314404,49.599756],[-94.361719,49.57627],[-94.368359,49.563135],[-94.30166,49.514893],[-94.17334,49.496582],[-94.134326,49.448437],[-94.144385,49.427441],[-94.052051,49.373145]],[[-94.701611,49.190576],[-94.701611,49.190576],[-94.701611,49.190576],[-94.787402,49.19248],[-94.783691,49.170117],[-94.731494,49.091797],[-94.656885,49.089941],[-94.630762,49.056396],[-94.593506,49.035889],[-94.528271,49.041455],[-94.505859,49.11792],[-94.44624,49.179443],[-94.448096,49.201758],[-94.515234,49.214844],[-94.621484,49.190576],[-94.701611,49.190576]]]}},{"type":"Feature","properties":{"name":"Lake Nipigon","scalerank":0},"bbox":[-89.09209,49.389062,-88.030469,50.290771],"geometry":{"type":"Polygon","coordinates":[[[-88.030469,49.96123],[-88.030469,49.96123],[-88.030469,49.96123],[-88.106494,49.934229],[-88.144531,49.912158],[-88.143311,49.894873],[-88.108057,49.867822],[-88.129492,49.784912],[-88.112402,49.711426],[-88.134229,49.635254],[-88.165674,49.58042],[-88.158594,49.507471],[-88.180273,49.466211],[-88.304883,49.45918],[-88.368311,49.434082],[-88.406006,49.389062],[-88.438721,49.393652],[-88.466553,49.443213],[-88.493555,49.4625],[-88.513477,49.51416],[-88.541602,49.548779],[-88.552197,49.543701],[-88.547021,49.48833],[-88.562695,49.462207],[-88.621826,49.427881],[-88.667578,49.433447],[-88.705713,49.441504],[-88.772949,49.458105],[-88.785937,49.48833],[-88.759424,49.526953],[-88.710352,49.586963],[-88.610352,49.606494],[-88.590186,49.607812],[-88.587305,49.62793],[-88.607471,49.646631],[-88.688135,49.633203],[-88.744189,49.630811],[-88.785596,49.56709],[-88.823193,49.539551],[-88.868945,49.520508],[-88.909033,49.5104],[-88.960059,49.50127],[-89.000342,49.528613],[-89.018604,49.567822],[-89.016406,49.582812],[-88.960059,49.560303],[-88.920215,49.559668],[-88.907422,49.579443],[-88.906494,49.617627],[-88.929053,49.694336],[-88.930322,49.754687],[-88.955713,49.756006],[-89.00752,49.714258],[-89.04541,49.725928],[-89.09209,49.775537],[-89.087012,49.804053],[-89.069238,49.824023],[-89.004443,49.786523],[-88.949414,49.809766],[-88.940625,49.819922],[-88.950195,49.855127],[-88.945068,49.879736],[-88.888477,49.93252],[-88.904639,50.023389],[-88.893213,50.056836],[-88.769385,50.213281],[-88.704541,50.253613],[-88.639111,50.277002],[-88.551074,50.239111],[-88.464795,50.237646],[-88.355908,50.162012],[-88.314648,50.147949],[-88.287598,50.150049],[-88.277783,50.159326],[-88.288184,50.177979],[-88.340039,50.22583],[-88.414844,50.265332],[-88.420508,50.28916],[-88.383936,50.290771],[-88.343799,50.275],[-88.231836,50.212793],[-88.199219,50.187744],[-88.170508,50.134814],[-88.172217,50.112891],[-88.204492,50.111475],[-88.215381,50.095801],[-88.222363,50.059229],[-88.217627,50.026953],[-88.234717,49.990576],[-88.213184,49.993457],[-88.168848,50.027783],[-88.132568,50.035205],[-88.083643,50.000684],[-88.033252,49.979053],[-88.030469,49.96123]],[[-88.554346,50.021973],[-88.554346,50.021973],[-88.554346,50.021973],[-88.554346,50.035791],[-88.589746,50.046582],[-88.615918,50.046582],[-88.629736,50.043506],[-88.632812,50.017383],[-88.638965,49.98501],[-88.654395,49.949658],[-88.688232,49.926562],[-88.719043,49.900391],[-88.746729,49.878809],[-88.748242,49.868066],[-88.715918,49.849609],[-88.675928,49.849609],[-88.620508,49.820361],[-88.588184,49.80498],[-88.582031,49.815723],[-88.589746,49.835742],[-88.611279,49.861914],[-88.635889,49.897314],[-88.635889,49.915771],[-88.625146,49.951172],[-88.588184,49.983496],[-88.56665,49.997314],[-88.554346,50.021973]],[[-88.38501,49.647266],[-88.38501,49.647266],[-88.38501,49.647266],[-88.374463,49.689404],[-88.39292,49.699951],[-88.421875,49.685449],[-88.489014,49.660449],[-88.490332,49.611719],[-88.399463,49.616992],[-88.38501,49.647266]]]}},{"type":"Feature","properties":{"name":"Oneida Lake","scalerank":0},"bbox":[-76.096387,43.176758,-75.733447,43.262744],"geometry":{"type":"Polygon","coordinates":[[[-75.75,43.225537],[-75.733447,43.205664],[-75.799609,43.180859],[-75.95918,43.176758],[-76.095605,43.237939],[-76.096387,43.253662],[-76.060059,43.262744],[-75.860742,43.247852],[-75.75,43.225537],[-75.75,43.225537],[-75.75,43.225537],[-75.75,43.225537]]]}},{"type":"Feature","properties":{"name":"Lake Winnebago","scalerank":0},"bbox":[-88.51875,43.808105,-88.321094,44.196045],"geometry":{"type":"Polygon","coordinates":[[[-88.325098,44.067578],[-88.333789,43.938135],[-88.38335,43.866016],[-88.431055,43.808105],[-88.464844,43.813428],[-88.491846,43.93916],[-88.51875,44.029053],[-88.484473,44.110449],[-88.41792,44.194531],[-88.358105,44.196045],[-88.321094,44.180176],[-88.325098,44.067578],[-88.325098,44.067578],[-88.325098,44.067578],[-88.325098,44.067578]]]}},{"type":"Feature","properties":{"name":"Lake Champlain","scalerank":0},"bbox":[-73.451221,43.756982,-73.087842,45.077979],"geometry":{"type":"Polygon","coordinates":[[[-73.373242,44.147705],[-73.404932,44.053857],[-73.369336,43.875732],[-73.355713,43.780713],[-73.367627,43.756982],[-73.385596,43.810498],[-73.403223,43.865527],[-73.430273,44.00498],[-73.446973,44.031104],[-73.451221,44.083398],[-73.443945,44.192969],[-73.354053,44.281152],[-73.376855,44.392773],[-73.400342,44.430859],[-73.443799,44.637549],[-73.399854,44.774902],[-73.382861,44.936084],[-73.346777,45.018018],[-73.323926,45.02876],[-73.307959,44.955957],[-73.296387,44.914014],[-73.285059,44.912646],[-73.25542,44.94248],[-73.204004,45.02168],[-73.146826,45.072998],[-73.104004,45.077979],[-73.087842,45.046143],[-73.11084,45.009326],[-73.162744,44.985449],[-73.192676,44.956592],[-73.17251,44.919092],[-73.176221,44.873975],[-73.194434,44.707129],[-73.213721,44.586426],[-73.226904,44.563232],[-73.262549,44.541797],[-73.255615,44.506836],[-73.228516,44.493262],[-73.227637,44.444971],[-73.23584,44.432812],[-73.24834,44.43667],[-73.270557,44.396729],[-73.287793,44.319971],[-73.325928,44.233838],[-73.373242,44.147705],[-73.373242,44.147705],[-73.373242,44.147705],[-73.373242,44.147705]]]}},{"type":"Feature","properties":{"name":"Keuka L.","scalerank":1},"bbox":[-77.203027,42.425391,-77.057568,42.648486],"geometry":{"type":"Polygon","coordinates":[[[-77.057568,42.644482],[-77.107373,42.520996],[-77.191016,42.425391],[-77.203027,42.437354],[-77.169922,42.511963],[-77.148145,42.568359],[-77.113379,42.568848],[-77.07749,42.648486],[-77.057568,42.644482],[-77.057568,42.644482],[-77.057568,42.644482]]]}},{"type":"Feature","properties":{"name":"Seneca Lake","scalerank":4},"bbox":[-76.969922,42.416309,-76.876465,42.877588],"geometry":{"type":"Polygon","coordinates":[[[-76.879199,42.416309],[-76.910156,42.459229],[-76.917578,42.591357],[-76.954004,42.730176],[-76.969922,42.877588],[-76.954004,42.869629],[-76.882031,42.682764],[-76.882715,42.536719],[-76.876465,42.444189],[-76.879199,42.416309],[-76.879199,42.416309],[-76.879199,42.416309]]]}},{"type":"Feature","properties":{"name":"Cayuga Lake","scalerank":0},"bbox":[-76.772754,42.48916,-76.519727,42.943311],"geometry":{"type":"Polygon","coordinates":[[[-76.519727,42.501074],[-76.527686,42.48916],[-76.586328,42.547363],[-76.667139,42.602686],[-76.772754,42.777979],[-76.75083,42.925391],[-76.734863,42.943311],[-76.701025,42.757861],[-76.665137,42.668408],[-76.603125,42.593896],[-76.519727,42.501074],[-76.519727,42.501074],[-76.519727,42.501074]]]}},{"type":"Feature","properties":{"name":"Lac-à-l'Eau-Claire","scalerank":0},"bbox":[-74.824805,55.935449,-73.985449,56.336182],"geometry":{"type":"Polygon","coordinates":[[[-73.989746,56.025586],[-74.070312,55.974756],[-74.183887,55.957373],[-74.227686,55.946094],[-74.221338,55.935449],[-74.249316,55.938037],[-74.276416,55.951465],[-74.230615,55.984766],[-74.336182,56.024072],[-74.563721,56.06709],[-74.732422,56.091357],[-74.800391,56.137305],[-74.824805,56.213818],[-74.819141,56.273438],[-74.770996,56.308008],[-74.663818,56.336182],[-74.477441,56.317627],[-74.312207,56.262256],[-74.248437,56.160986],[-74.160742,56.143652],[-74.05415,56.137061],[-73.985449,56.096533],[-73.989746,56.025586],[-73.989746,56.025586],[-73.989746,56.025586]]]}},{"type":"Feature","properties":{"name":"Lake Nipissing","scalerank":0},"bbox":[-80.447217,46.160791,-79.435547,46.358252],"geometry":{"type":"Polygon","coordinates":[[[-80.447217,46.282178],[-80.409131,46.289746],[-80.345996,46.285547],[-80.314062,46.263721],[-80.252783,46.249316],[-80.14668,46.25752],[-80.118018,46.27749],[-80.142725,46.301709],[-80.125488,46.323633],[-80.05332,46.345801],[-79.855908,46.339551],[-79.778955,46.3479],[-79.653418,46.358252],[-79.493994,46.310645],[-79.435547,46.235449],[-79.486523,46.184229],[-79.572607,46.165918],[-79.771826,46.212939],[-79.876367,46.192969],[-79.986475,46.160791],[-80.005859,46.165771],[-79.991211,46.198828],[-80.01499,46.232129],[-80.062598,46.244043],[-80.293359,46.225],[-80.447217,46.282178],[-80.447217,46.282178],[-80.447217,46.282178]]]}},{"type":"Feature","properties":{"name":null,"scalerank":0},"bbox":[-76.546777,56.126807,-75.9354,56.550195],"geometry":{"type":"Polygon","coordinates":[[[-76.546777,56.163916],[-76.524609,56.183545],[-76.504395,56.212598],[-76.417187,56.306152],[-76.397217,56.345264],[-76.420264,56.364844],[-76.425098,56.388721],[-76.391406,56.498828],[-76.36582,56.550195],[-76.341309,56.530664],[-76.329541,56.503516],[-76.305176,56.467529],[-76.245117,56.4229],[-76.233691,56.397021],[-76.275439,56.378662],[-76.204687,56.322021],[-76.116357,56.276514],[-76.024756,56.236621],[-75.939062,56.19082],[-75.9354,56.173779],[-75.953418,56.14541],[-76.146777,56.126807],[-76.446094,56.139307],[-76.546777,56.163916],[-76.546777,56.163916],[-76.546777,56.163916]]]}},{"type":"Feature","properties":{"name":"Rés. de La Grande 3","scalerank":0},"bbox":[-76.124463,53.465283,-74.43335,53.896533],"geometry":{"type":"Polygon","coordinates":[[[-76.088379,53.666211],[-76.100146,53.736963],[-76.036377,53.737012],[-75.930273,53.76582],[-75.902002,53.791064],[-75.912207,53.812744],[-75.849951,53.855078],[-75.5521,53.891943],[-75.292285,53.896533],[-75.268164,53.87793],[-75.24082,53.842627],[-75.183789,53.820459],[-74.799268,53.893408],[-74.733789,53.895654],[-74.724707,53.857178],[-74.819824,53.83833],[-74.889355,53.794141],[-75.048682,53.752588],[-75.194043,53.721289],[-75.269922,53.709131],[-75.265186,53.684033],[-75.161572,53.677002],[-74.94292,53.671777],[-74.770801,53.653857],[-74.593408,53.667432],[-74.593408,53.667432],[-74.593408,53.667432],[-74.593408,53.667432],[-74.593408,53.667432],[-74.593408,53.667432],[-74.456006,53.701367],[-74.43335,53.684521],[-74.460938,53.6625],[-74.678662,53.609033],[-74.807178,53.604932],[-74.935352,53.577881],[-75.026758,53.57627],[-74.998389,53.622266],[-75.033936,53.639258],[-75.119727,53.623145],[-75.237598,53.618652],[-75.477979,53.631445],[-75.633398,53.637695],[-75.657666,53.620068],[-75.613672,53.601514],[-75.601074,53.582031],[-75.632422,53.538379],[-75.716064,53.497412],[-75.934473,53.465283],[-76.10166,53.475342],[-76.124463,53.522607],[-76.064404,53.569092],[-76.02417,53.590625],[-75.94502,53.623877],[-75.906787,53.653125],[-75.94502,53.685742],[-76.017969,53.672314],[-76.088379,53.666211]]]}},{"type":"Feature","properties":{"name":"Rés. de La Grande 2","scalerank":0},"bbox":[-77.68501,53.492822,-76.088379,54.187988],"geometry":{"type":"Polygon","coordinates":[[[-76.100146,53.736963],[-76.088379,53.666211],[-76.360156,53.630127],[-76.384863,53.595752],[-76.514648,53.557471],[-76.838525,53.499219],[-76.911621,53.501367],[-77.186768,53.492822],[-77.223047,53.514551],[-77.289844,53.522949],[-77.396631,53.520801],[-77.487695,53.560498],[-77.492822,53.60708],[-77.464844,53.638135],[-77.511084,53.650928],[-77.620752,53.658984],[-77.68501,53.679199],[-77.61167,53.721582],[-77.419678,53.797803],[-77.340723,53.811377],[-77.287842,53.791113],[-77.015674,53.821045],[-76.901855,53.847168],[-76.765967,53.909717],[-76.731006,53.976514],[-76.845898,54.031055],[-76.887988,54.056641],[-76.86792,54.072363],[-76.840186,54.088037],[-76.659619,54.026318],[-76.618359,54.033008],[-76.602344,54.054785],[-76.560645,54.055713],[-76.509277,54.047852],[-76.471289,54.058789],[-76.471973,54.082422],[-76.533301,54.1146],[-76.572656,54.14043],[-76.557422,54.157178],[-76.453906,54.177686],[-76.368359,54.187988],[-76.328857,54.162109],[-76.263965,54.13584],[-76.202002,54.138721],[-76.190869,54.152832],[-76.150293,54.142578],[-76.105322,54.115967],[-76.139697,54.107666],[-76.183398,54.10332],[-76.255371,54.073486],[-76.304004,53.962744],[-76.349023,53.945898],[-76.376025,53.927197],[-76.43335,53.897559],[-76.487354,53.851465],[-76.595508,53.788281],[-76.702734,53.750146],[-76.749658,53.722949],[-76.696143,53.699414],[-76.55376,53.712158],[-76.142725,53.736914],[-76.100146,53.736963]]]}},{"type":"Feature","properties":{"name":"Lake Sakami","scalerank":0},"bbox":[-76.937549,52.967529,-76.49668,53.484863],"geometry":{"type":"Polygon","coordinates":[[[-76.637207,53.260107],[-76.647852,53.242188],[-76.665234,53.22085],[-76.691895,53.211523],[-76.684814,53.190088],[-76.687891,53.169727],[-76.784277,53.146777],[-76.843262,53.094971],[-76.838574,53.033984],[-76.798535,52.980859],[-76.854541,52.967529],[-76.899463,52.994775],[-76.937549,53.118799],[-76.904492,53.164648],[-76.880713,53.215918],[-76.889795,53.244043],[-76.891992,53.290869],[-76.8729,53.324121],[-76.891797,53.344873],[-76.843555,53.394238],[-76.719873,53.468848],[-76.70332,53.444238],[-76.70332,53.419434],[-76.66123,53.416846],[-76.613477,53.447266],[-76.563916,53.484863],[-76.514551,53.467529],[-76.49668,53.413965],[-76.522559,53.379492],[-76.637207,53.36084],[-76.671533,53.340088],[-76.676172,53.313916],[-76.656152,53.297998],[-76.607861,53.306152],[-76.589209,53.288867],[-76.637207,53.260107],[-76.637207,53.260107],[-76.637207,53.260107]]]}},{"type":"Feature","properties":{"name":null,"scalerank":0},"bbox":[-89.522314,52.853857,-88.952002,53.005713],"geometry":{"type":"Polygon","coordinates":[[[-89.522314,52.882666],[-89.471045,52.897021],[-89.434082,52.917676],[-89.42207,52.948242],[-89.283203,53.005713],[-89.198975,52.988477],[-89.122852,52.965918],[-89.003711,52.985352],[-88.952002,52.987744],[-88.983008,52.940039],[-89.043799,52.870215],[-89.150977,52.853857],[-89.362305,52.866211],[-89.477832,52.868359],[-89.522314,52.882666],[-89.522314,52.882666],[-89.522314,52.882666]]]}},{"type":"Feature","properties":{"name":"Lake St. Joseph","scalerank":0},"bbox":[-91.36709,50.918457,-90.426904,51.214502],"geometry":{"type":"Polygon","coordinates":[[[-91.345312,50.968848],[-91.302148,51.035498],[-91.274365,51.068994],[-91.213867,51.066309],[-91.091064,51.037646],[-90.976221,51.011133],[-90.911328,51.037451],[-90.844336,51.07251],[-90.794629,51.094287],[-90.745312,51.12041],[-90.662695,51.176221],[-90.604102,51.214502],[-90.520166,51.191504],[-90.472412,51.169824],[-90.430811,51.139551],[-90.426904,51.119189],[-90.527783,51.068066],[-90.747021,51.014111],[-90.936523,50.954443],[-91.119824,50.945557],[-91.238184,50.93374],[-91.317969,50.918457],[-91.36709,50.930469],[-91.345312,50.968848],[-91.345312,50.968848],[-91.345312,50.968848]]]}},{"type":"Feature","properties":{"name":"Réservoir Gouin","scalerank":0},"bbox":[-75.414453,48.2875,-74.100195,48.802393],"geometry":{"type":"Polygon","coordinates":[[[-74.530957,48.46084],[-74.530957,48.46084],[-74.530957,48.46084],[-74.530957,48.46084],[-74.545312,48.438574],[-74.574512,48.425195],[-74.596094,48.418408],[-74.621387,48.420117],[-74.638477,48.413818],[-74.651416,48.399707],[-74.67666,48.363525],[-74.686035,48.35708],[-74.69165,48.381689],[-74.705664,48.419727],[-74.722168,48.433936],[-74.755518,48.448682],[-74.816406,48.512305],[-74.866553,48.559961],[-74.911133,48.574951],[-74.945459,48.575635],[-74.964258,48.556299],[-74.968555,48.51875],[-74.960303,48.498682],[-74.941992,48.487109],[-74.944971,48.453906],[-74.954053,48.379736],[-74.960303,48.364307],[-74.986279,48.364746],[-75.023438,48.359082],[-75.059326,48.346631],[-75.081738,48.340723],[-75.129785,48.2875],[-75.139502,48.288721],[-75.12998,48.329834],[-75.114502,48.413965],[-75.099219,48.478174],[-75.07334,48.495361],[-75.04248,48.513721],[-75.008008,48.56416],[-75.018164,48.612207],[-75.069971,48.596484],[-75.094531,48.576514],[-75.12876,48.555273],[-75.164844,48.526025],[-75.181982,48.479053],[-75.181006,48.438477],[-75.173877,48.414404],[-75.213477,48.405859],[-75.26875,48.408203],[-75.300439,48.424268],[-75.336035,48.436963],[-75.362598,48.429004],[-75.387109,48.443701],[-75.414453,48.437842],[-75.389355,48.483447],[-75.349756,48.531592],[-75.301562,48.579785],[-75.281836,48.597266],[-75.249707,48.598193],[-75.218896,48.592041],[-75.180762,48.601807],[-75.146436,48.636475],[-75.109326,48.674951],[-75.060986,48.706299],[-75.042187,48.71167],[-74.969531,48.693555],[-74.921387,48.709717],[-74.812061,48.757178],[-74.762451,48.773389],[-74.722656,48.784766],[-74.630078,48.801074],[-74.557861,48.802393],[-74.543066,48.778271],[-74.522363,48.756104],[-74.543701,48.70376],[-74.57998,48.6396],[-74.554785,48.608301],[-74.507227,48.593994],[-74.485205,48.580029],[-74.455762,48.581201],[-74.411719,48.588525],[-74.396582,48.579297],[-74.405664,48.547168],[-74.369678,48.485742],[-74.314307,48.44917],[-74.262891,48.438574],[-74.222754,48.426221],[-74.173779,48.398193],[-74.173779,48.398193],[-74.117578,48.388428],[-74.100195,48.372217],[-74.151074,48.360107],[-74.2375,48.346826],[-74.312061,48.376855],[-74.39541,48.440234],[-74.462549,48.470654],[-74.510254,48.479736],[-74.530957,48.46084]]]}},{"type":"Feature","properties":{"name":"Lake Bienville","scalerank":0},"bbox":[-73.604395,54.902832,-72.225391,55.281445],"geometry":{"type":"Polygon","coordinates":[[[-73.182129,55.098242],[-73.153613,55.112793],[-73.154102,55.125049],[-73.066992,55.14707],[-72.923242,55.179541],[-72.832227,55.190527],[-72.732129,55.200391],[-72.646631,55.213281],[-72.588818,55.216162],[-72.516943,55.221045],[-72.418408,55.240869],[-72.304785,55.27168],[-72.225391,55.281445],[-72.25,55.261816],[-72.281201,55.226318],[-72.285742,55.193066],[-72.289795,55.166406],[-72.357812,55.125781],[-72.472998,55.083154],[-72.628613,55.049121],[-72.705664,55.010205],[-72.789404,54.997803],[-72.918213,54.973877],[-73.045117,54.946387],[-73.109814,54.946777],[-73.149268,54.964453],[-73.213477,54.967871],[-73.312988,54.946973],[-73.412842,54.92124],[-73.555371,54.902832],[-73.604395,54.927441],[-73.511182,54.942041],[-73.427686,54.969531],[-73.409229,54.986523],[-73.43335,55.006396],[-73.485303,55.021924],[-73.513574,55.03418],[-73.511279,55.0479],[-73.491016,55.055615],[-73.433984,55.050977],[-73.364844,55.047852],[-73.271875,55.07002],[-73.205762,55.089111],[-73.182129,55.098242],[-73.182129,55.098242],[-73.182129,55.098242],[-73.182129,55.098242]]]}},{"type":"Feature","properties":{"name":"Canandaigua Lake","scalerank":5},"bbox":[-77.363916,42.688916,-77.244873,42.894775],"geometry":{"type":"Polygon","coordinates":[[[-77.262207,42.8146],[-77.309375,42.768311],[-77.354004,42.688916],[-77.363916,42.703809],[-77.360645,42.733545],[-77.33418,42.784814],[-77.291113,42.836475],[-77.270508,42.894775],[-77.244873,42.875781],[-77.262207,42.8146],[-77.262207,42.8146],[-77.262207,42.8146]]]}},{"type":"Feature","properties":{"name":"Owasco Lake","scalerank":5},"bbox":[-76.548682,42.769141,-76.468457,42.92207],"geometry":{"type":"Polygon","coordinates":[[[-76.479199,42.769971],[-76.527197,42.836084],[-76.548682,42.897266],[-76.536279,42.92207],[-76.469336,42.780713],[-76.468457,42.769141],[-76.479199,42.769971],[-76.479199,42.769971],[-76.479199,42.769971]]]}},{"type":"Feature","properties":{"name":"Skaneateles Lake","scalerank":5},"bbox":[-76.427979,42.787207,-76.272168,42.960107],"geometry":{"type":"Polygon","coordinates":[[[-76.272168,42.787207],[-76.361816,42.850146],[-76.427979,42.910498],[-76.425488,42.960107],[-76.372217,42.887305],[-76.293164,42.832764],[-76.272168,42.787207],[-76.272168,42.787207],[-76.272168,42.787207]]]}},{"type":"Feature","properties":{"name":"Leech Lake","scalerank":0},"bbox":[-94.620801,47.061816,-94.245312,47.284619],"geometry":{"type":"Polygon","coordinates":[[[-94.245312,47.191455],[-94.260352,47.150049],[-94.301514,47.09668],[-94.346289,47.074707],[-94.394629,47.066992],[-94.433008,47.077002],[-94.460938,47.109229],[-94.519385,47.14292],[-94.565674,47.119727],[-94.569727,47.074756],[-94.578076,47.061816],[-94.58584,47.079395],[-94.604639,47.122949],[-94.620801,47.165674],[-94.61084,47.205957],[-94.589062,47.201807],[-94.502246,47.221387],[-94.436963,47.232178],[-94.379297,47.241113],[-94.296484,47.284619],[-94.281494,47.270166],[-94.296924,47.220898],[-94.308105,47.182812],[-94.27793,47.186182],[-94.245312,47.191455],[-94.245312,47.191455],[-94.245312,47.191455],[-94.245312,47.191455]]]}},{"type":"Feature","properties":{"name":"Lac des Mille Lacs","scalerank":0},"bbox":[-90.688184,48.784668,-90.287744,48.973828],"geometry":{"type":"Polygon","coordinates":[[[-90.291797,48.934961],[-90.287744,48.915625],[-90.313965,48.87832],[-90.339648,48.821484],[-90.375146,48.785937],[-90.440381,48.784668],[-90.458154,48.797949],[-90.524658,48.806104],[-90.600928,48.811377],[-90.634326,48.832764],[-90.631689,48.86709],[-90.650146,48.91665],[-90.684277,48.920361],[-90.688184,48.944141],[-90.66582,48.966895],[-90.626221,48.973828],[-90.591064,48.960254],[-90.561133,48.926172],[-90.546484,48.895166],[-90.47959,48.88457],[-90.400342,48.88584],[-90.360791,48.892529],[-90.324463,48.915771],[-90.291797,48.934961],[-90.291797,48.934961],[-90.291797,48.934961],[-90.291797,48.934961]]]}},{"type":"Feature","properties":{"name":"Réservoir Baskatong","scalerank":0},"bbox":[-76.033496,46.714941,-75.687793,46.99707],"geometry":{"type":"Polygon","coordinates":[[[-75.694287,46.896631],[-75.687793,46.87207],[-75.698389,46.824854],[-75.731641,46.768115],[-75.751416,46.717627],[-75.794873,46.714941],[-75.864355,46.754932],[-75.943262,46.758643],[-76.01748,46.746729],[-76.033496,46.759473],[-76.009619,46.777734],[-75.971484,46.819092],[-75.958154,46.858984],[-75.95498,46.874854],[-75.890137,46.888672],[-75.830615,46.901611],[-75.778857,46.963721],[-75.736523,46.99707],[-75.727148,46.974072],[-75.694287,46.896631],[-75.694287,46.896631],[-75.694287,46.896631],[-75.694287,46.896631]]]}},{"type":"Feature","properties":{"name":"Big Trout Lake","scalerank":0},"bbox":[-90.357178,53.67876,-89.608594,53.886328],"geometry":{"type":"Polygon","coordinates":[[[-90.357178,53.766064],[-90.343652,53.789014],[-90.321094,53.834912],[-90.289893,53.867969],[-90.251758,53.870068],[-90.226953,53.85625],[-90.20083,53.840625],[-90.171289,53.837891],[-90.144922,53.853906],[-90.100684,53.870801],[-90.04624,53.881201],[-90.001855,53.886328],[-89.927637,53.863232],[-89.861865,53.833545],[-89.846729,53.814893],[-89.729102,53.791309],[-89.608594,53.771533],[-89.67793,53.733057],[-89.813916,53.689941],[-89.938672,53.67876],[-90.033789,53.685205],[-90.103027,53.71665],[-90.166895,53.746631],[-90.274561,53.756543],[-90.357178,53.766064],[-90.357178,53.766064],[-90.357178,53.766064],[-90.357178,53.766064]]]}},{"type":"Feature","properties":{"name":"Trout Lake","scalerank":0},"bbox":[-93.481299,51.033496,-93.071631,51.301514],"geometry":{"type":"Polygon","coordinates":[[[-93.164502,51.071191],[-93.181787,51.054932],[-93.199609,51.038574],[-93.2354,51.033496],[-93.31958,51.074609],[-93.429297,51.153613],[-93.481299,51.208154],[-93.480176,51.236572],[-93.455273,51.264014],[-93.405762,51.292041],[-93.37002,51.301514],[-93.343555,51.286133],[-93.283301,51.279492],[-93.215137,51.298926],[-93.174561,51.294727],[-93.141064,51.272949],[-93.123242,51.240771],[-93.101465,51.207324],[-93.071631,51.17334],[-93.073633,51.159033],[-93.137305,51.122803],[-93.164502,51.071191],[-93.164502,51.071191],[-93.164502,51.071191]]]}},{"type":"Feature","properties":{"name":"Island Lake","scalerank":0},"bbox":[-94.948633,53.709619,-94.002148,53.989014],"geometry":{"type":"Polygon","coordinates":[[[-94.236279,53.734424],[-94.35083,53.730127],[-94.445703,53.71958],[-94.517627,53.709619],[-94.552637,53.713184],[-94.681934,53.733447],[-94.855176,53.785693],[-94.93335,53.82666],[-94.948633,53.859277],[-94.937939,53.902393],[-94.93335,53.933105],[-94.889355,53.945508],[-94.851465,53.955957],[-94.822412,53.975488],[-94.75376,53.989014],[-94.634082,53.98623],[-94.601416,53.97168],[-94.620752,53.945312],[-94.685596,53.915283],[-94.689258,53.896924],[-94.654248,53.875977],[-94.590137,53.858447],[-94.476611,53.864111],[-94.345947,53.874365],[-94.229346,53.882568],[-94.130762,53.892139],[-94.047754,53.882227],[-94.002148,53.846631],[-94.013965,53.798486],[-94.102734,53.758789],[-94.179639,53.741699],[-94.236279,53.734424],[-94.236279,53.734424],[-94.236279,53.734424],[-94.236279,53.734424]]]}},{"type":"Feature","properties":{"name":"Mille Lacs Lake","scalerank":0},"bbox":[-93.795459,46.135596,-93.513623,46.360205],"geometry":{"type":"Polygon","coordinates":[[[-93.534277,46.24873],[-93.521045,46.210303],[-93.513623,46.176611],[-93.539648,46.150146],[-93.599805,46.135596],[-93.667871,46.136816],[-93.725928,46.15791],[-93.775,46.200439],[-93.795459,46.255371],[-93.75835,46.307959],[-93.678809,46.34458],[-93.607227,46.360205],[-93.569434,46.356592],[-93.551758,46.341162],[-93.541553,46.300342],[-93.538086,46.268555],[-93.534277,46.24873],[-93.534277,46.24873],[-93.534277,46.24873],[-93.534277,46.24873]]]}},{"type":"Feature","properties":{"name":"Lake Simcoe","scalerank":0},"bbox":[-79.58418,44.226855,-79.162695,44.698096],"geometry":{"type":"Polygon","coordinates":[[[-79.448242,44.309619],[-79.478955,44.269775],[-79.480078,44.235791],[-79.498877,44.226855],[-79.519385,44.274316],[-79.536865,44.352832],[-79.573682,44.393066],[-79.58418,44.405078],[-79.56748,44.431299],[-79.50293,44.462891],[-79.445312,44.51001],[-79.412891,44.562158],[-79.392627,44.602637],[-79.386719,44.640674],[-79.372705,44.698096],[-79.354395,44.689893],[-79.340869,44.636426],[-79.265088,44.562793],[-79.211035,44.535254],[-79.176709,44.491357],[-79.162695,44.449512],[-79.171777,44.418896],[-79.201562,44.384375],[-79.342432,44.342969],[-79.448242,44.309619],[-79.448242,44.309619],[-79.448242,44.309619]]]}},{"type":"Feature","properties":{"name":"Gods Lake","scalerank":0},"bbox":[-94.768066,54.41167,-93.645459,54.849902],"geometry":{"type":"Polygon","coordinates":[[[-93.922705,54.834717],[-93.77749,54.80791],[-93.690332,54.792383],[-93.645459,54.787598],[-93.647363,54.779053],[-93.702393,54.75835],[-93.834961,54.75835],[-93.912012,54.74375],[-93.933691,54.709082],[-93.988965,54.670801],[-94.157422,54.635547],[-94.29126,54.617822],[-94.339648,54.606982],[-94.414355,54.585791],[-94.450049,54.541992],[-94.465332,54.521338],[-94.495215,54.501611],[-94.551367,54.47959],[-94.674756,54.439893],[-94.763379,54.41167],[-94.767139,54.426611],[-94.768066,54.45376],[-94.758154,54.476123],[-94.735498,54.499658],[-94.650098,54.540771],[-94.557812,54.623242],[-94.508057,54.668896],[-94.489062,54.723779],[-94.47627,54.785547],[-94.477002,54.800781],[-94.437207,54.80542],[-94.369141,54.818604],[-94.271875,54.842432],[-94.109863,54.849902],[-94.011963,54.846582],[-93.922705,54.834717],[-93.922705,54.834717],[-93.922705,54.834717],[-93.922705,54.834717]]]}},{"type":"Feature","properties":{"name":null,"scalerank":0},"bbox":[-95.91792,55.418555,-95.599512,55.614502],"geometry":{"type":"Polygon","coordinates":[[[-95.599512,55.614502],[-95.634668,55.576123],[-95.683105,55.520068],[-95.713965,55.476758],[-95.769092,55.441846],[-95.860596,55.42085],[-95.91792,55.418555],[-95.913135,55.435791],[-95.905811,55.461035],[-95.895605,55.486523],[-95.817285,55.526172],[-95.795166,55.568555],[-95.698535,55.596143],[-95.599512,55.614502],[-95.599512,55.614502],[-95.599512,55.614502],[-95.599512,55.614502]]]}},{"type":"Feature","properties":{"name":"Rainy Lake","scalerank":0},"bbox":[-93.612793,48.350684,-92.43457,48.934424],"geometry":{"type":"Polygon","coordinates":[[[-92.917822,48.432959],[-92.995264,48.450586],[-93.050488,48.479541],[-93.071143,48.504443],[-93.055762,48.512842],[-92.982422,48.490674],[-92.865039,48.461963],[-92.787598,48.454932],[-92.745264,48.476855],[-92.703711,48.504541],[-92.697607,48.517041],[-92.812988,48.540479],[-92.936377,48.564551],[-92.949951,48.576416],[-92.947852,48.586475],[-93.001025,48.593115],[-93.079492,48.590576],[-93.109082,48.580518],[-93.099854,48.564209],[-93.116992,48.553174],[-93.162354,48.557568],[-93.196484,48.578906],[-93.279248,48.606836],[-93.339307,48.6],[-93.381592,48.616162],[-93.370068,48.638428],[-93.370312,48.656885],[-93.400879,48.681494],[-93.40332,48.705273],[-93.377734,48.710254],[-93.352393,48.716895],[-93.364502,48.748047],[-93.416943,48.785205],[-93.496143,48.812988],[-93.578955,48.825879],[-93.612793,48.833594],[-93.583301,48.842676],[-93.491357,48.839062],[-93.433887,48.846338],[-93.438867,48.869287],[-93.449756,48.887305],[-93.462793,48.902832],[-93.408447,48.91499],[-93.345215,48.929004],[-93.322461,48.934424],[-93.293848,48.884766],[-93.261572,48.825098],[-93.226904,48.805225],[-93.202588,48.79082],[-93.201465,48.766797],[-93.199805,48.745654],[-93.229053,48.718066],[-93.264844,48.686377],[-93.260889,48.67373],[-93.24541,48.667041],[-93.2229,48.670264],[-93.171191,48.700732],[-93.123682,48.72832],[-93.135059,48.706152],[-93.149219,48.674756],[-93.118506,48.667969],[-93.014795,48.683203],[-92.979492,48.687598],[-92.948828,48.681299],[-92.896484,48.683008],[-92.793408,48.695312],[-92.779004,48.678027],[-92.853418,48.646094],[-92.869922,48.634766],[-92.868359,48.624512],[-92.866309,48.615234],[-92.807568,48.604395],[-92.731836,48.588428],[-92.685059,48.591113],[-92.654639,48.599658],[-92.64082,48.587402],[-92.603223,48.56499],[-92.585352,48.53374],[-92.58252,48.50957],[-92.569678,48.500195],[-92.599902,48.48457],[-92.56748,48.468018],[-92.490625,48.45625],[-92.469678,48.439746],[-92.448682,48.424121],[-92.43457,48.390674],[-92.441162,48.357227],[-92.455859,48.350684],[-92.478223,48.366064],[-92.519824,48.398633],[-92.600391,48.42417],[-92.763965,48.430322],[-92.917822,48.432959],[-92.917822,48.432959],[-92.917822,48.432959],[-92.917822,48.432959]]]}},{"type":"Feature","properties":{"name":"Split Lake","scalerank":0},"bbox":[-96.571875,56.062793,-95.842041,56.302295],"geometry":{"type":"Polygon","coordinates":[[[-96.049414,56.135742],[-96.080713,56.118066],[-96.088184,56.099854],[-96.072607,56.084912],[-96.086328,56.079102],[-96.172705,56.085107],[-96.244629,56.092188],[-96.357812,56.093896],[-96.451709,56.086572],[-96.552686,56.062793],[-96.571875,56.086182],[-96.504053,56.150293],[-96.371289,56.165283],[-96.278516,56.176953],[-96.20542,56.219971],[-96.053857,56.272852],[-95.905957,56.302295],[-95.842041,56.290771],[-95.865186,56.264795],[-95.932715,56.245752],[-96.035986,56.221924],[-96.105469,56.203027],[-96.075244,56.181689],[-96.043506,56.156299],[-96.049414,56.135742],[-96.049414,56.135742],[-96.049414,56.135742],[-96.049414,56.135742]]]}},{"type":"Feature","properties":{"name":"Lower Red Lake","scalerank":0},"bbox":[-95.270898,47.889258,-94.777148,48.065137],"geometry":{"type":"Polygon","coordinates":[[[-94.970215,48.032031],[-94.870752,48.004004],[-94.783203,47.969629],[-94.777148,47.936279],[-94.791846,47.909668],[-94.896924,47.89209],[-95.11084,47.889258],[-95.248193,47.907324],[-95.270898,47.942383],[-95.251318,47.988867],[-95.187109,48.033398],[-95.086426,48.065137],[-95.010791,48.059717],[-94.970215,48.032031],[-94.970215,48.032031],[-94.970215,48.032031],[-94.970215,48.032031]]]}},{"type":"Feature","properties":{"name":"Upper Red Lake","scalerank":0},"bbox":[-95.030713,48.064307,-94.558203,48.20332],"geometry":{"type":"Polygon","coordinates":[[[-95.02041,48.124756],[-94.974756,48.151562],[-94.839893,48.184082],[-94.690234,48.20332],[-94.612109,48.199072],[-94.561035,48.178174],[-94.558203,48.140576],[-94.600244,48.106445],[-94.662842,48.083008],[-94.749707,48.066357],[-94.893896,48.064307],[-95.008057,48.072461],[-95.030713,48.094287],[-95.02041,48.124756],[-95.02041,48.124756],[-95.02041,48.124756],[-95.02041,48.124756]]]}},{"type":"Feature","properties":{"name":"Cabonga Reservoir","scalerank":0},"bbox":[-76.822754,47.055957,-76.326855,47.69082],"geometry":{"type":"Polygon","coordinates":[[[-76.478955,47.138428],[-76.478955,47.138428],[-76.478955,47.138428],[-76.478955,47.138428],[-76.478955,47.138428],[-76.435205,47.122217],[-76.394092,47.121777],[-76.358936,47.119238],[-76.326855,47.102295],[-76.331445,47.083154],[-76.362988,47.067822],[-76.392529,47.055957],[-76.442676,47.063867],[-76.504639,47.091943],[-76.535303,47.109131],[-76.552637,47.120996],[-76.581836,47.17832],[-76.602734,47.241406],[-76.624707,47.268896],[-76.650732,47.278369],[-76.668018,47.266211],[-76.654297,47.222266],[-76.638574,47.184912],[-76.668848,47.199854],[-76.707227,47.242139],[-76.7146,47.310889],[-76.741406,47.35459],[-76.781396,47.357373],[-76.788672,47.385059],[-76.777637,47.416211],[-76.767383,47.449414],[-76.779053,47.476367],[-76.822754,47.497705],[-76.819336,47.517383],[-76.747949,47.558252],[-76.658154,47.610645],[-76.5625,47.667432],[-76.522314,47.69082],[-76.516162,47.673047],[-76.594629,47.623926],[-76.699023,47.570361],[-76.721631,47.539648],[-76.714844,47.52417],[-76.655518,47.551709],[-76.605176,47.572217],[-76.618311,47.542871],[-76.633398,47.510205],[-76.556445,47.497705],[-76.458984,47.475537],[-76.407764,47.446045],[-76.422461,47.400195],[-76.474951,47.331396],[-76.48877,47.283594],[-76.493994,47.250244],[-76.501514,47.221875],[-76.516797,47.20083],[-76.511523,47.170508],[-76.478955,47.138428]]]}},{"type":"Feature","properties":{"name":"Lake Abitibi","scalerank":5},"bbox":[-80.180225,48.448975,-79.22627,48.934717],"geometry":{"type":"Polygon","coordinates":[[[-80.180225,48.812109],[-80.153223,48.834668],[-80.123389,48.877002],[-80.105469,48.912744],[-80.055225,48.919287],[-79.952051,48.934717],[-79.889062,48.924219],[-79.864746,48.890283],[-79.836328,48.874707],[-79.835742,48.852881],[-79.857275,48.806689],[-79.85459,48.7646],[-79.832422,48.729785],[-79.769629,48.716895],[-79.700781,48.723047],[-79.653906,48.738574],[-79.617236,48.770068],[-79.576416,48.797168],[-79.498926,48.760889],[-79.412598,48.714648],[-79.323584,48.704736],[-79.25918,48.689551],[-79.248047,48.665479],[-79.256543,48.598828],[-79.242871,48.544189],[-79.232666,48.503174],[-79.22627,48.472217],[-79.246875,48.456104],[-79.282861,48.448975],[-79.313232,48.45249],[-79.310889,48.474805],[-79.312158,48.49751],[-79.311328,48.531836],[-79.294971,48.577637],[-79.297217,48.608301],[-79.319336,48.631104],[-79.372949,48.644727],[-79.438672,48.648242],[-79.477686,48.641748],[-79.483447,48.62959],[-79.485449,48.618262],[-79.510547,48.612939],[-79.602148,48.620459],[-79.700586,48.641016],[-79.753271,48.643701],[-79.80415,48.631982],[-79.867285,48.633447],[-79.916113,48.658643],[-79.972021,48.698584],[-79.980908,48.71665],[-80.000049,48.734326],[-80.017383,48.74834],[-80.060352,48.783105],[-80.091309,48.774609],[-80.148291,48.789502],[-80.180225,48.812109],[-80.180225,48.812109],[-80.180225,48.812109],[-80.180225,48.812109]]]}},{"type":"Feature","properties":{"name":null,"scalerank":1},"bbox":[-77.025928,51.288232,-76.553516,51.415771],"geometry":{"type":"Polygon","coordinates":[[[-76.677197,51.373437],[-76.677197,51.373437],[-76.677197,51.373437],[-76.677197,51.373437],[-76.553516,51.364014],[-76.563232,51.344482],[-76.751221,51.288232],[-77.025928,51.328711],[-76.982568,51.343164],[-76.903223,51.354639],[-76.861621,51.379687],[-76.839502,51.404346],[-76.819482,51.415771],[-76.762207,51.39082],[-76.677197,51.373437]]]}},{"type":"Feature","properties":{"name":null,"scalerank":1},"bbox":[-91.646777,51.071045,-91.389893,51.165967],"geometry":{"type":"Polygon","coordinates":[[[-91.417773,51.119531],[-91.417773,51.119531],[-91.417773,51.119531],[-91.417773,51.119531],[-91.389893,51.071045],[-91.541553,51.085498],[-91.591309,51.117871],[-91.646777,51.153564],[-91.608594,51.165967],[-91.504297,51.162158],[-91.441455,51.162891],[-91.416699,51.143262],[-91.417773,51.119531]]]}},{"type":"Feature","properties":{"name":null,"scalerank":1},"bbox":[-91.991211,51.894238,-91.895361,51.98208],"geometry":{"type":"Polygon","coordinates":[[[-91.97041,51.957715],[-91.97041,51.957715],[-91.97041,51.957715],[-91.97041,51.957715],[-91.949512,51.98208],[-91.895361,51.951904],[-91.910449,51.911084],[-91.931738,51.894238],[-91.968115,51.924414],[-91.991211,51.936816],[-91.97041,51.957715]]]}},{"type":"Feature","properties":{"name":null,"scalerank":1},"bbox":[-78.827393,51.03374,-78.549805,51.152295],"geometry":{"type":"Polygon","coordinates":[[[-78.616309,51.077148],[-78.616309,51.077148],[-78.616309,51.077148],[-78.616309,51.077148],[-78.549805,51.03374],[-78.812988,51.097363],[-78.827393,51.152295],[-78.794336,51.145898],[-78.72041,51.108936],[-78.616309,51.077148]]]}},{"type":"Feature","properties":{"name":null,"scalerank":1},"bbox":[-78.812793,47.570264,-78.57124,47.690967],"geometry":{"type":"Polygon","coordinates":[[[-78.62793,47.596924],[-78.62793,47.596924],[-78.62793,47.596924],[-78.62793,47.596924],[-78.696387,47.57666],[-78.762842,47.570264],[-78.786963,47.594922],[-78.797998,47.625635],[-78.812793,47.656396],[-78.791943,47.690967],[-78.724072,47.683691],[-78.611865,47.680615],[-78.57124,47.65625],[-78.583789,47.624609],[-78.604248,47.608301],[-78.62793,47.596924]]]}},{"type":"Feature","properties":{"name":null,"scalerank":1},"bbox":[-77.321973,47.346729,-76.934814,47.613721],"geometry":{"type":"Polygon","coordinates":[[[-77.273193,47.59126],[-77.273193,47.59126],[-77.273193,47.59126],[-77.273193,47.59126],[-77.235449,47.549512],[-77.176953,47.546973],[-77.128809,47.56084],[-77.101514,47.545117],[-77.065332,47.508496],[-76.962939,47.502344],[-76.934814,47.487549],[-76.965625,47.442334],[-77.119385,47.477295],[-77.184668,47.456201],[-77.178613,47.411523],[-77.16499,47.389355],[-77.181348,47.368994],[-77.259424,47.346729],[-77.288525,47.385986],[-77.270312,47.462891],[-77.304443,47.513184],[-77.321973,47.573486],[-77.303662,47.606934],[-77.28833,47.613721],[-77.273193,47.59126]]]}},{"type":"Feature","properties":{"name":null,"scalerank":1},"bbox":[-96.284619,55.212451,-95.675684,55.401367],"geometry":{"type":"Polygon","coordinates":[[[-96.284619,55.237695],[-96.284619,55.237695],[-96.284619,55.237695],[-96.284619,55.237695],[-96.205176,55.271387],[-96.054736,55.287061],[-95.853174,55.360596],[-95.788818,55.400195],[-95.702148,55.401367],[-95.675684,55.364062],[-95.733447,55.30752],[-95.830029,55.280127],[-96.106494,55.217236],[-96.229248,55.212451],[-96.284619,55.237695]]]}},{"type":"Feature","properties":{"name":null,"scalerank":1},"bbox":[-83.925146,48.304541,-83.429248,48.506006],"geometry":{"type":"Polygon","coordinates":[[[-83.610937,48.37832],[-83.610937,48.37832],[-83.610937,48.37832],[-83.610937,48.37832],[-83.688135,48.33916],[-83.78125,48.304541],[-83.832129,48.314893],[-83.925146,48.307129],[-83.854102,48.336816],[-83.721094,48.420752],[-83.639893,48.42749],[-83.617773,48.425928],[-83.57251,48.424414],[-83.429248,48.506006],[-83.467969,48.433691],[-83.610937,48.37832]]]}}]}